{"type":"FeatureCollection","_meta":{
  "title": "Engroshandel med nærings- og nytelsesmidler og matrelatert lagring",
  "sourceClass": "registry_snapshot",
  "verificationStatus": "unverified",
  "accessedAt": "2026-09-14",
  "citationText": "Brønnøysundregistrene (2026). Enhetsregisteret – underenheter og enheter, næringskode 46.3 og 52.1. Posisjon fra Kartverket Matrikkelen adresse.",
  "licence": {
    "brreg": "NLOD",
    "kartverket": "CC BY 4.0"
  },
  "privacy": "Bare underenheter som tilhører en organisasjon som ikke er enkeltpersonforetak vises som punkter. Enkeltpersonforetak og underenheter uten kjent hovedenhet telles per kommune.",
  "selection": {
    "rule": "Aktive underenheter (uten nedleggelsesdato) med minst 20 ansatte og næringskode 46.3 eller 52.1. 46.35 (tobakk) er utelatt. 52.1 (lagring) tas bare med når hovedenhetens næringskode er matrelatert (03., 10., 11., 46.3, 47.1, 47.2, 56.) eller navnet på underenheten eller hovedenheten viser kjøle-, fryse- eller matlager.",
    "minEmployees": 20,
    "naceIncluded": [
      "46.3",
      "52.1"
    ],
    "naceExcluded": [
      "46.35"
    ],
    "warehousingFoodParentNace": [
      "03.",
      "10.",
      "11.",
      "46.3",
      "47.1",
      "47.2",
      "56."
    ],
    "warehousingFoodName": "(?<![\\p{L}\\p{N}])(frys\\p{L}*|kjøl\\p{L}*|frigo\\p{L}*|cold|sjømat|seafood|fisk\\p{L}*|food|mat|kjøtt\\p{L}*|meieri\\p{L}*|frukt|grønt)(?![\\p{L}\\p{N}])"
  },
  "method": "Beliggenhetsadressen geokodes mot Matrikkelen: gateadresse og postnummer, deretter stedsnavn, deretter postnummerets midtpunkt. Flerlinjeadresser prøves linje for linje.",
  "reproduce": "npm run fetch:wholesale-logistics",
  "sources": [
    {
      "name": "Brønnøysundregistrene – underenheter",
      "url": "https://data.brreg.no/enhetsregisteret/api/underenheter/lastned/csv",
      "sha256": "56d53b54f012f0f7345ce2b7b80ca7886231d4dc30fb74538f6a881d1c63766e",
      "bytes": 323867789,
      "fetchedAt": "2026-09-14T14:44:07.685Z"
    },
    {
      "name": "Brønnøysundregistrene – enheter",
      "url": "https://data.brreg.no/enhetsregisteret/api/enheter/lastned/csv",
      "sha256": "0c53e8809b55d3cf648bbd81bab78d4bf50afef294276f169799b38125b5b222",
      "bytes": 840591111,
      "fetchedAt": "2026-09-14T14:44:22.963Z"
    },
    {
      "name": "Kartverket – Matrikkelen adresse (CSV)",
      "url": "https://nedlasting.geonorge.no/geonorge/Basisdata/MatrikkelenAdresse/CSV/Basisdata_0000_Norge_4258_MatrikkelenAdresse_CSV.zip",
      "sha256": "32cb757c552bad159f08cec388e74fdb381fb68849f279d406c4ea0cb081b451",
      "bytes": 151730244,
      "fetchedAt": "2026-09-14T14:43:59.393Z"
    }
  ],
  "counts": {
    "unitsRead": 863142,
    "unitsInNace": 3326,
    "excluded": {
      "too-small": 3094,
      "non-food-warehousing": 25,
      "tobacco": 3
    },
    "selected": 204,
    "selectedBy": {
      "food-wholesale": 198,
      "food-name": 5,
      "food-parent": 1
    },
    "points": 203,
    "kommuneCounted": {},
    "droppedWithoutLocation": 1,
    "pointsByGroup": {
      "wholesale": 197,
      "warehousing": 6
    },
    "pointsByNace": {
      "46.390": 83,
      "46.310": 36,
      "46.380": 27,
      "46.322": 27,
      "46.340": 9,
      "46.370": 7,
      "52.100": 6,
      "46.360": 5,
      "46.330": 2,
      "46.321": 1
    },
    "pointsByPrecision": {
      "address": 187,
      "postnummer": 16
    }
  }
},
"kommuneCounts":{},
"features":[
{"type":"Feature","geometry":{"type":"Point","coordinates":[10.74183,59.90992]},"properties":{"orgNr":"815301722","name":"MAGNAT KAFFEHUS AS","group":"wholesale","naceCode":"46.370","naceDescription":"Engroshandel med kaffe, te, kakao og krydder","employees":23,"parentOrgNr":"915262341","parentName":"MAGNAT KAFFEHUS AS","parentOrgForm":"AS","address":"Kongens gate 6","postnummer":"0153","poststed":"OSLO","kommunenummer":"0301","precision":"address"}},
{"type":"Feature","geometry":{"type":"Point","coordinates":[10.78373,59.90222]},"properties":{"orgNr":"818530242","name":"KOLONIHAGEN AS","group":"wholesale","naceCode":"46.390","naceDescription":"Engroshandel med bredt utvalg av nærings- og nytelsesmidler","employees":21,"parentOrgNr":"999581846","parentName":"KOLONIHAGEN AS","parentOrgForm":"AS","address":"Konows gate 67B","postnummer":"0196","poststed":"OSLO","kommunenummer":"0301","precision":"address"}},
{"type":"Feature","geometry":{"type":"Point","coordinates":[10.40052,63.38711]},"properties":{"orgNr":"826150882","name":"WULFF & CO AS AVD TRONDHEIM","group":"wholesale","naceCode":"46.380","naceDescription":"Engroshandel med andre næringsmidler","employees":23,"parentOrgNr":"886181132","parentName":"WULFF & CO AS","parentOrgForm":"AS","address":"Fossegrenda 1","postnummer":"7038","poststed":"TRONDHEIM","kommunenummer":"5001","precision":"postnummer"}},
{"type":"Feature","geometry":{"type":"Point","coordinates":[10.64485,59.91363]},"properties":{"orgNr":"871745382","name":"FINDUS NORGE AS AVD SALG/ADMINISTRASJON ASKER","group":"wholesale","naceCode":"46.390","naceDescription":"Engroshandel med bredt utvalg av nærings- og nytelsesmidler","employees":47,"parentOrgNr":"981279980","parentName":"FINDUS NORGE AS","parentOrgForm":"AS","address":"Drammensveien 288","postnummer":"0283","poststed":"OSLO","kommunenummer":"0301","precision":"address"}},
{"type":"Feature","geometry":{"type":"Point","coordinates":[5.71826,58.81051]},"properties":{"orgNr":"871747342","name":"REMA DISTRIBUSJON NORGE AS DISTRIBUNAL STAVANGER","group":"wholesale","naceCode":"46.390","naceDescription":"Engroshandel med bredt utvalg av nærings- og nytelsesmidler","employees":137,"parentOrgNr":"894759372","parentName":"REMA DISTRIBUSJON NORGE AS","parentOrgForm":"AS","address":"Næringsveien 1","postnummer":"4323","poststed":"SANDNES","kommunenummer":"1108","precision":"address"}},
{"type":"Feature","geometry":{"type":"Point","coordinates":[11.22937,63.71683]},"properties":{"orgNr":"871793832","name":"NÆR ENGROS LEVANGER AS","group":"wholesale","naceCode":"46.390","naceDescription":"Engroshandel med bredt utvalg av nærings- og nytelsesmidler","employees":30,"parentOrgNr":"977056721","parentName":"NÆR ENGROS LEVANGER AS","parentOrgForm":"AS","address":"Gråmyrbakken 20","postnummer":"7608","poststed":"LEVANGER","kommunenummer":"5037","precision":"address"}},
{"type":"Feature","geometry":{"type":"Point","coordinates":[11.52997,64.46964]},"properties":{"orgNr":"871892202","name":"NÆR ENGROS AS","group":"wholesale","naceCode":"46.390","naceDescription":"Engroshandel med bredt utvalg av nærings- og nytelsesmidler","employees":24,"parentOrgNr":"977293383","parentName":"NÆR ENGROS AS","parentOrgForm":"AS","address":"Axel Sellægs veg 7","postnummer":"7805","poststed":"NAMSOS","kommunenummer":"5007","precision":"address"}},
{"type":"Feature","geometry":{"type":"Point","coordinates":[9.90464,59.28661]},"properties":{"orgNr":"872062432","name":"LÅGEN GULROT AS","group":"wholesale","naceCode":"46.310","naceDescription":"Engroshandel med frukt og grønnsaker","employees":25,"parentOrgNr":"839658842","parentName":"LÅGEN GULROT AS","parentOrgForm":"AS","address":"Lågendalsveien 2660","postnummer":"3277","poststed":"STEINSHOLT","kommunenummer":"3909","precision":"address"}},
{"type":"Feature","geometry":{"type":"Point","coordinates":[9.90464,59.28661]},"properties":{"orgNr":"872375422","name":"LÅGEN GRØNT AS","group":"wholesale","naceCode":"46.310","naceDescription":"Engroshandel med frukt og grønnsaker","employees":23,"parentOrgNr":"966756586","parentName":"LÅGEN GRØNT AS","parentOrgForm":"AS","address":"Lågendalsveien 2660","postnummer":"3277","poststed":"STEINSHOLT","kommunenummer":"3909","precision":"address"}},
{"type":"Feature","geometry":{"type":"Point","coordinates":[18.9572,69.65122]},"properties":{"orgNr":"873188332","name":"NORGES RÅFISKLAG SA AVD TROMSØ","group":"wholesale","naceCode":"46.322","naceDescription":"Engroshandel med fisk, skalldyr og bløtdyr","employees":42,"parentOrgNr":"938469148","parentName":"NORGES RÅFISKLAG SA","parentOrgForm":"SA","address":"Kystens hus, Stortorget 1","postnummer":"9008","poststed":"TROMSØ","kommunenummer":"5501","precision":"postnummer"}},
{"type":"Feature","geometry":{"type":"Point","coordinates":[10.84187,59.76804]},"properties":{"orgNr":"874090042","name":"ODD LANGDALEN FRUKT & GRØNT EN GROS AS","group":"wholesale","naceCode":"46.310","naceDescription":"Engroshandel med frukt og grønnsaker","employees":87,"parentOrgNr":"959216908","parentName":"ODD LANGDALEN FRUKT & GRØNT EN GROS AS","parentOrgForm":"AS","address":"Regnbueveien 10","postnummer":"1405","poststed":"LANGHUS","kommunenummer":"3207","precision":"address"}},
{"type":"Feature","geometry":{"type":"Point","coordinates":[10.74342,59.58598]},"properties":{"orgNr":"874163082","name":"HAUGEN - GRUPPEN AS","group":"wholesale","naceCode":"46.390","naceDescription":"Engroshandel med bredt utvalg av nærings- og nytelsesmidler","employees":120,"parentOrgNr":"930391794","parentName":"HAUGEN - GRUPPEN AS","parentOrgForm":"AS","address":"Delitoppen 5","postnummer":"1540","poststed":"VESTBY","kommunenummer":"3216","precision":"address"}},
{"type":"Feature","geometry":{"type":"Point","coordinates":[5.65702,58.99965]},"properties":{"orgNr":"875969692","name":"DOMSTEIN SJØMAT AS AVD STAVANGER","group":"wholesale","naceCode":"46.322","naceDescription":"Engroshandel med fisk, skalldyr og bløtdyr","employees":32,"parentOrgNr":"997420470","parentName":"DOMSTEIN SJØMAT AS","parentOrgForm":"AS","address":"Tangen 6","postnummer":"4072","poststed":"RANDABERG","kommunenummer":"1127","precision":"address"}},
{"type":"Feature","geometry":{"type":"Point","coordinates":[10.71236,59.91653]},"properties":{"orgNr":"876314452","name":"MOESTUE GRAPE SELECTIONS AS","group":"wholesale","naceCode":"46.340","naceDescription":"Engroshandel med drikkevarer","employees":20,"parentOrgNr":"976311396","parentName":"MOESTUE GRAPE SELECTIONS AS","parentOrgForm":"AS","address":"Bygdøy allé 23","postnummer":"0262","poststed":"OSLO","kommunenummer":"0301","precision":"address"}},
{"type":"Feature","geometry":{"type":"Point","coordinates":[5.32185,60.41166]},"properties":{"orgNr":"883499492","name":"SEABORN AS","group":"wholesale","naceCode":"46.322","naceDescription":"Engroshandel med fisk, skalldyr og bløtdyr","employees":90,"parentOrgNr":"983469248","parentName":"SEABORN AS","parentOrgForm":"AS","address":"Sandviksbodene 66","postnummer":"5035","poststed":"BERGEN","kommunenummer":"4601","precision":"address"}},
{"type":"Feature","geometry":{"type":"Point","coordinates":[5.70148,58.78215]},"properties":{"orgNr":"884180562","name":"NORGANIC AS","group":"wholesale","naceCode":"46.380","naceDescription":"Engroshandel med andre næringsmidler","employees":37,"parentOrgNr":"984155913","parentName":"NORGANIC AS","parentOrgForm":"AS","address":"Plogfabrikkvegen 13","postnummer":"4353","poststed":"KLEPP STASJON","kommunenummer":"1120","precision":"address"}},
{"type":"Feature","geometry":{"type":"Point","coordinates":[6.15768,62.4723]},"properties":{"orgNr":"886102232","name":"MARINE SALES AS","group":"wholesale","naceCode":"46.322","naceDescription":"Engroshandel med fisk, skalldyr og bløtdyr","employees":30,"parentOrgNr":"943704430","parentName":"MARINE SALES AS","parentOrgForm":"AS","address":"Grimmergata 5","postnummer":"6002","poststed":"ÅLESUND","kommunenummer":"1508","precision":"address"}},
{"type":"Feature","geometry":{"type":"Point","coordinates":[10.78817,59.82209]},"properties":{"orgNr":"886915292","name":"DR. OETKER NORGE AS","group":"wholesale","naceCode":"46.380","naceDescription":"Engroshandel med andre næringsmidler","employees":27,"parentOrgNr":"886894392","parentName":"DR. OETKER NORGE AS","parentOrgForm":"AS","address":"Rosenholmveien 25","postnummer":"1414","poststed":"TROLLÅSEN","kommunenummer":"3207","precision":"address"}},
{"type":"Feature","geometry":{"type":"Point","coordinates":[10.63926,59.90924]},"properties":{"orgNr":"887971692","name":"CLOETTA NORGE AS","group":"wholesale","naceCode":"46.360","naceDescription":"Engroshandel med sukker, sjokolade og sukkervarer","employees":29,"parentOrgNr":"987943033","parentName":"CLOETTA NORGE AS","parentOrgForm":"AS","address":"Strandveien 55","postnummer":"1366","poststed":"LYSAKER","kommunenummer":"3201","precision":"address"}},
{"type":"Feature","geometry":{"type":"Point","coordinates":[10.91588,60.89207]},"properties":{"orgNr":"892536252","name":"BAMA STORKJØKKEN AS AVD 115 HAMAR STORKJØKKEN","group":"wholesale","naceCode":"46.310","naceDescription":"Engroshandel med frukt og grønnsaker","employees":29,"parentOrgNr":"995518333","parentName":"BAMA STORKJØKKEN AS","parentOrgForm":"AS","address":"Skansvegen 5","postnummer":"2383","poststed":"BRUMUNDDAL","kommunenummer":"3411","precision":"address"}},
{"type":"Feature","geometry":{"type":"Point","coordinates":[10.73869,59.58772]},"properties":{"orgNr":"892750882","name":"ASKO SENTRALLAGER OG TRANSPORT AS AVD HANDEL","group":"wholesale","naceCode":"46.390","naceDescription":"Engroshandel med bredt utvalg av nærings- og nytelsesmidler","employees":391,"parentOrgNr":"992684666","parentName":"ASKO SENTRALLAGER OG TRANSPORT AS","parentOrgForm":"AS","address":"Deliveien 33","postnummer":"1540","poststed":"VESTBY","kommunenummer":"3216","precision":"address"}},
{"type":"Feature","geometry":{"type":"Point","coordinates":[10.76858,59.91418]},"properties":{"orgNr":"897325152","name":"NORDIC APPROACH AS","group":"wholesale","naceCode":"46.370","naceDescription":"Engroshandel med kaffe, te, kakao og krydder","employees":22,"parentOrgNr":"997244753","parentName":"NORDIC APPROACH AS","parentOrgForm":"AS","address":"Tøyengata 29C","postnummer":"0578","poststed":"OSLO","kommunenummer":"0301","precision":"address"}},
{"type":"Feature","geometry":{"type":"Point","coordinates":[10.81571,59.92395]},"properties":{"orgNr":"911844664","name":"NORBYGATA ENGROS AS","group":"wholesale","naceCode":"46.390","naceDescription":"Engroshandel med bredt utvalg av nærings- og nytelsesmidler","employees":25,"parentOrgNr":"979496079","parentName":"NORBYGATA ENGROS AS","parentOrgForm":"AS","address":"Ulvenveien 102","postnummer":"0581","poststed":"OSLO","kommunenummer":"0301","precision":"address"}},
{"type":"Feature","geometry":{"type":"Point","coordinates":[5.74038,58.8926]},"properties":{"orgNr":"912244598","name":"EXIM LINE AS","group":"wholesale","naceCode":"46.390","naceDescription":"Engroshandel med bredt utvalg av nærings- og nytelsesmidler","employees":24,"parentOrgNr":"913315642","parentName":"EXIM LINE AS","parentOrgForm":"AS","address":"Gamle Forusveien 20","postnummer":"4031","poststed":"STAVANGER","kommunenummer":"1103","precision":"address"}},
{"type":"Feature","geometry":{"type":"Point","coordinates":[8.13635,58.17102]},"properties":{"orgNr":"913676971","name":"REMA DISTRIBUSJON IMPORT AS AVD KRISTIANSAND","group":"wholesale","naceCode":"46.390","naceDescription":"Engroshandel med bredt utvalg av nærings- og nytelsesmidler","employees":69,"parentOrgNr":"982187001","parentName":"REMA DISTRIBUSJON IMPORT AS","parentOrgForm":"AS","address":"Buråsen 35","postnummer":"4636","poststed":"KRISTIANSAND S","kommunenummer":"4204","precision":"address"}},
{"type":"Feature","geometry":{"type":"Point","coordinates":[9.60185,59.16901]},"properties":{"orgNr":"914060354","name":"BARE FRUKT & GRØNT AS AVD TELEMARK","group":"wholesale","naceCode":"46.310","naceDescription":"Engroshandel med frukt og grønnsaker","employees":26,"parentOrgNr":"995518023","parentName":"BARE FRUKT & GRØNT AS","parentOrgForm":"AS","address":"Rødmyrlia 39","postnummer":"3735","poststed":"SKIEN","kommunenummer":"4003","precision":"address"}},
{"type":"Feature","geometry":{"type":"Point","coordinates":[10.74033,59.90297]},"properties":{"orgNr":"914201918","name":"LOFOTPRODUKT AS AVD OSLO SALG OG MARKED","group":"wholesale","naceCode":"46.322","naceDescription":"Engroshandel med fisk, skalldyr og bløtdyr","employees":36,"parentOrgNr":"971141603","parentName":"LOFOTPRODUKT AS","parentOrgForm":"AS","address":"Akershusstranda 23","postnummer":"0150","poststed":"OSLO","kommunenummer":"0301","precision":"address"}},
{"type":"Feature","geometry":{"type":"Point","coordinates":[7.86487,58.13467]},"properties":{"orgNr":"914986818","name":"BARE FRUKT & GRØNT AS AVD KRISTIANSAND S","group":"wholesale","naceCode":"46.310","naceDescription":"Engroshandel med frukt og grønnsaker","employees":26,"parentOrgNr":"995518023","parentName":"BARE FRUKT & GRØNT AS","parentOrgForm":"AS","address":"Mjåvannsflaten 7","postnummer":"4628","poststed":"KRISTIANSAND S","kommunenummer":"4204","precision":"address"}},
{"type":"Feature","geometry":{"type":"Point","coordinates":[5.46416,60.43098]},"properties":{"orgNr":"915122620","name":"HJELLES AS AVD INDRE ARNA","group":"wholesale","naceCode":"46.360","naceDescription":"Engroshandel med sukker, sjokolade og sukkervarer","employees":24,"parentOrgNr":"911655179","parentName":"HJELLES AS","parentOrgForm":"AS","address":"Storaneset 12","postnummer":"5260","poststed":"INDRE ARNA","kommunenummer":"4601","precision":"address"}},
{"type":"Feature","geometry":{"type":"Point","coordinates":[10.74023,59.59076]},"properties":{"orgNr":"915143458","name":"ASKO SENTRALLAGER KJØL AS","group":"wholesale","naceCode":"46.390","naceDescription":"Engroshandel med bredt utvalg av nærings- og nytelsesmidler","employees":209,"parentOrgNr":"915138357","parentName":"ASKO SENTRALLAGER KJØL AS","parentOrgForm":"AS","address":"Deliveien 49","postnummer":"1540","poststed":"VESTBY","kommunenummer":"3216","precision":"address"}},
{"type":"Feature","geometry":{"type":"Point","coordinates":[10.82501,59.91372]},"properties":{"orgNr":"915858198","name":"GEIA FOOD AS","group":"wholesale","naceCode":"46.390","naceDescription":"Engroshandel med bredt utvalg av nærings- og nytelsesmidler","employees":35,"parentOrgNr":"915819591","parentName":"GEIA FOOD AS","parentOrgForm":"AS","address":"Ole Deviks vei 6A","postnummer":"0666","poststed":"OSLO","kommunenummer":"0301","precision":"address"}},
{"type":"Feature","geometry":{"type":"Point","coordinates":[5.35282,60.31746]},"properties":{"orgNr":"916582250","name":"CESAR MAT AS","group":"wholesale","naceCode":"46.380","naceDescription":"Engroshandel med andre næringsmidler","employees":22,"parentOrgNr":"916552947","parentName":"CESAR MAT AS","parentOrgForm":"AS","address":"Nesttunvegen 111","postnummer":"5221","poststed":"NESTTUN","kommunenummer":"4601","precision":"address"}},
{"type":"Feature","geometry":{"type":"Point","coordinates":[14.21005,68.15524]},"properties":{"orgNr":"916770839","name":"GADUS NORWAY AS AVD HENNINGSVÆR","group":"wholesale","naceCode":"46.322","naceDescription":"Engroshandel med fisk, skalldyr og bløtdyr","employees":23,"parentOrgNr":"912191346","parentName":"GADUS NORWAY AS","parentOrgForm":"AS","address":"Hellandsgata 85","postnummer":"8312","poststed":"HENNINGSVÆR","kommunenummer":"1865","precision":"address"}},
{"type":"Feature","geometry":{"type":"Point","coordinates":[10.19488,59.56907]},"properties":{"orgNr":"918096329","name":"ASKO OSLOFJORD AS","group":"wholesale","naceCode":"46.390","naceDescription":"Engroshandel med bredt utvalg av nærings- og nytelsesmidler","employees":461,"parentOrgNr":"930622974","parentName":"ASKO OSLOFJORD AS","parentOrgForm":"AS","address":"Hanekleiva 76","postnummer":"3070","poststed":"SANDE I VESTFOLD","kommunenummer":"3903","precision":"address"}},
{"type":"Feature","geometry":{"type":"Point","coordinates":[10.83281,59.93002]},"properties":{"orgNr":"918478957","name":"ROYAL ENGROS AS","group":"wholesale","naceCode":"46.380","naceDescription":"Engroshandel med andre næringsmidler","employees":43,"parentOrgNr":"918420207","parentName":"ROYAL ENGROS AS","parentOrgForm":"AS","address":"Brobekkveien 104B","postnummer":"0582","poststed":"OSLO","kommunenummer":"0301","precision":"postnummer"}},
{"type":"Feature","geometry":{"type":"Point","coordinates":[11.1335,60.17538]},"properties":{"orgNr":"919420995","name":"OSLO SEAFOOD CENTER AS AVD GARDERMOEN","group":"warehousing","naceCode":"52.100","naceDescription":"Lagring","employees":61,"parentOrgNr":"919316349","parentName":"OSLO SEAFOOD CENTER AS","parentOrgForm":"AS","address":"Kurillvegen 8","postnummer":"2060","poststed":"GARDERMOEN","kommunenummer":"3209","precision":"address"}},
{"type":"Feature","geometry":{"type":"Point","coordinates":[10.39824,63.43483]},"properties":{"orgNr":"919899786","name":"GRANO SØNDRE AS","group":"wholesale","naceCode":"46.390","naceDescription":"Engroshandel med bredt utvalg av nærings- og nytelsesmidler","employees":23,"parentOrgNr":"926080385","parentName":"GRANO SØNDRE AS","parentOrgForm":"AS","address":"c/o Antonio Melis, Fjordgata 46","postnummer":"7010","poststed":"TRONDHEIM","kommunenummer":"5001","precision":"address"}},
{"type":"Feature","geometry":{"type":"Point","coordinates":[10.86841,59.93985]},"properties":{"orgNr":"920004601","name":"BAMA DAGLIGVARE AS","group":"wholesale","naceCode":"46.310","naceDescription":"Engroshandel med frukt og grønnsaker","employees":77,"parentOrgNr":"995518015","parentName":"BAMA DAGLIGVARE AS","parentOrgForm":"AS","address":"Nedre Kalbakkvei 40","postnummer":"1081","poststed":"OSLO","kommunenummer":"0301","precision":"address"}},
{"type":"Feature","geometry":{"type":"Point","coordinates":[31.11463,70.37181]},"properties":{"orgNr":"920170854","name":"AALESUNDFISK VARDØ AS","group":"wholesale","naceCode":"46.322","naceDescription":"Engroshandel med fisk, skalldyr og bløtdyr","employees":26,"parentOrgNr":"919871814","parentName":"AALESUNDFISK VARDØ AS","parentOrgForm":"AS","address":"Svartnes Havnelageret","postnummer":"9950","poststed":"VARDØ","kommunenummer":"5634","precision":"postnummer"}},
{"type":"Feature","geometry":{"type":"Point","coordinates":[10.80009,59.92657]},"properties":{"orgNr":"921426453","name":"KAFFEKNAPPEN NORGE AS","group":"wholesale","naceCode":"46.370","naceDescription":"Engroshandel med kaffe, te, kakao og krydder","employees":50,"parentOrgNr":"921154003","parentName":"KAFFEKNAPPEN NORGE AS","parentOrgForm":"AS","address":"Økernveien 121","postnummer":"0579","poststed":"OSLO","kommunenummer":"0301","precision":"address"}},
{"type":"Feature","geometry":{"type":"Point","coordinates":[10.77402,59.73364]},"properties":{"orgNr":"921599935","name":"REMA DISTRIBUSJON NORGE AS AVD DISTRIBUNAL ØSTLANDET","group":"wholesale","naceCode":"46.390","naceDescription":"Engroshandel med bredt utvalg av nærings- og nytelsesmidler","employees":435,"parentOrgNr":"894759372","parentName":"REMA DISTRIBUSJON NORGE AS","parentOrgForm":"AS","address":"Myråsdalen 15","postnummer":"1407","poststed":"VINTERBRO","kommunenummer":"3218","precision":"address"}},
{"type":"Feature","geometry":{"type":"Point","coordinates":[22.35069,70.23699]},"properties":{"orgNr":"924041773","name":"ØKSFJORD FISKEINDUSTRI AS","group":"wholesale","naceCode":"46.322","naceDescription":"Engroshandel med fisk, skalldyr og bløtdyr","employees":24,"parentOrgNr":"924010762","parentName":"ØKSFJORD FISKEINDUSTRI AS","parentOrgForm":"AS","address":"Njordveien 6","postnummer":"9550","poststed":"ØKSFJORD","kommunenummer":"5614","precision":"address"}},
{"type":"Feature","geometry":{"type":"Point","coordinates":[10.77994,59.82286]},"properties":{"orgNr":"924493593","name":"DINDELI IMPORT AS","group":"wholesale","naceCode":"46.340","naceDescription":"Engroshandel med drikkevarer","employees":30,"parentOrgNr":"924475455","parentName":"DINDELI IMPORT AS","parentOrgForm":"AS","address":"Lienga 7","postnummer":"1414","poststed":"TROLLÅSEN","kommunenummer":"3207","precision":"address"}},
{"type":"Feature","geometry":{"type":"Point","coordinates":[10.83123,59.92629]},"properties":{"orgNr":"924545186","name":"SCANASIA AS","group":"wholesale","naceCode":"46.390","naceDescription":"Engroshandel med bredt utvalg av nærings- og nytelsesmidler","employees":36,"parentOrgNr":"924528109","parentName":"SCANASIA AS","parentOrgForm":"AS","address":"Brobekkveien 107","postnummer":"0582","poststed":"OSLO","kommunenummer":"0301","precision":"address"}},
{"type":"Feature","geometry":{"type":"Point","coordinates":[5.31913,60.39598]},"properties":{"orgNr":"925969966","name":"GRIEG SEAFOOD SALES AS AVD SALG","group":"wholesale","naceCode":"46.322","naceDescription":"Engroshandel med fisk, skalldyr og bløtdyr","employees":23,"parentOrgNr":"825948422","parentName":"GRIEG SEAFOOD SALES AS","parentOrgForm":"AS","address":"C. Sundts gate 17","postnummer":"5004","poststed":"BERGEN","kommunenummer":"4601","precision":"address"}},
{"type":"Feature","geometry":{"type":"Point","coordinates":[10.97439,59.24517]},"properties":{"orgNr":"926599879","name":"BAZA AS","group":"wholesale","naceCode":"46.390","naceDescription":"Engroshandel med bredt utvalg av nærings- og nytelsesmidler","employees":22,"parentOrgNr":"926585088","parentName":"BAZA AS","parentOrgForm":"AS","address":"Råbekksvingen 5","postnummer":"1617","poststed":"FREDRIKSTAD","kommunenummer":"3107","precision":"address"}},
{"type":"Feature","geometry":{"type":"Point","coordinates":[10.84201,59.86669]},"properties":{"orgNr":"927217473","name":"DLVRY AS","group":"wholesale","naceCode":"46.390","naceDescription":"Engroshandel med bredt utvalg av nærings- og nytelsesmidler","employees":44,"parentOrgNr":"926493353","parentName":"DLVRY AS","parentOrgForm":"AS","address":"Olaf Helsets vei 5","postnummer":"0694","poststed":"OSLO","kommunenummer":"0301","precision":"address"}},
{"type":"Feature","geometry":{"type":"Point","coordinates":[10.74594,59.57294]},"properties":{"orgNr":"928267652","name":"MORGENLEVERING AS LAGER","group":"warehousing","naceCode":"52.100","naceDescription":"Lagring","employees":23,"parentOrgNr":"920333478","parentName":"MORGENLEVERING AS","parentOrgForm":"AS","address":"Toveien 19","postnummer":"1540","poststed":"VESTBY","kommunenummer":"3216","precision":"address"}},
{"type":"Feature","geometry":{"type":"Point","coordinates":[5.1407,60.52883]},"properties":{"orgNr":"929015630","name":"KARE-BEAUTY AS","group":"wholesale","naceCode":"46.380","naceDescription":"Engroshandel med andre næringsmidler","employees":37,"parentOrgNr":"928851192","parentName":"KARE-BEAUTY AS","parentOrgForm":"AS","address":"Mongsedalen 7A","postnummer":"5918","poststed":"FREKHAUG","kommunenummer":"4631","precision":"address"}},
{"type":"Feature","geometry":{"type":"Point","coordinates":[10.86324,59.94486]},"properties":{"orgNr":"929517601","name":"ASKO NORGE AS","group":"wholesale","naceCode":"46.390","naceDescription":"Engroshandel med bredt utvalg av nærings- og nytelsesmidler","employees":111,"parentOrgNr":"929228723","parentName":"ASKO NORGE AS","parentOrgForm":"AS","address":"Nedre Kalbakkvei 22","postnummer":"0950","poststed":"OSLO","kommunenummer":"0301","precision":"address"}},
{"type":"Feature","geometry":{"type":"Point","coordinates":[10.34734,59.29975]},"properties":{"orgNr":"930219029","name":"CONSTELLATION COLD LOGISTICS TØNSBERG AS","group":"warehousing","naceCode":"52.100","naceDescription":"Lagring","employees":22,"parentOrgNr":"830088172","parentName":"CONSTELLATION COLD LOGISTICS TØNSBERG AS","parentOrgForm":"AS","address":"Åskollen 13","postnummer":"3170","poststed":"SEM","kommunenummer":"3905","precision":"address"}},
{"type":"Feature","geometry":{"type":"Point","coordinates":[14.9542,68.57374]},"properties":{"orgNr":"930259063","name":"NORDLAKS SALES AS","group":"wholesale","naceCode":"46.322","naceDescription":"Engroshandel med fisk, skalldyr og bløtdyr","employees":22,"parentOrgNr":"930224731","parentName":"NORDLAKS SALES AS","parentOrgForm":"AS","address":"Industriveien 14","postnummer":"8450","poststed":"STOKMARKNES","kommunenummer":"1866","precision":"address"}},
{"type":"Feature","geometry":{"type":"Point","coordinates":[10.68204,59.92214]},"properties":{"orgNr":"930578193","name":"ORKLA SNACKS AS","group":"wholesale","naceCode":"46.380","naceDescription":"Engroshandel med andre næringsmidler","employees":22,"parentOrgNr":"930097748","parentName":"ORKLA SNACKS AS","parentOrgForm":"AS","address":"Drammensveien 149A","postnummer":"0277","poststed":"OSLO","kommunenummer":"0301","precision":"address"}},
{"type":"Feature","geometry":{"type":"Point","coordinates":[17.42287,68.41183]},"properties":{"orgNr":"930737054","name":"SERVICEGROSSISTEN NORD AS","group":"wholesale","naceCode":"46.390","naceDescription":"Engroshandel med bredt utvalg av nærings- og nytelsesmidler","employees":29,"parentOrgNr":"830595112","parentName":"SERVICEGROSSISTEN NORD AS","parentOrgForm":"AS","address":"Skarvenesveien 3","postnummer":"8514","poststed":"NARVIK","kommunenummer":"1806","precision":"address"}},
{"type":"Feature","geometry":{"type":"Point","coordinates":[7.99502,58.14129]},"properties":{"orgNr":"930948497","name":"NORWEGIAN SEAFOOD AS","group":"wholesale","naceCode":"46.322","naceDescription":"Engroshandel med fisk, skalldyr og bløtdyr","employees":21,"parentOrgNr":"945675942","parentName":"NORWEGIAN SEAFOOD AS","parentOrgForm":"AS","address":"Gravane 8","postnummer":"4610","poststed":"KRISTIANSAND S","kommunenummer":"4204","precision":"address"}},
{"type":"Feature","geometry":{"type":"Point","coordinates":[9.28965,59.54996]},"properties":{"orgNr":"932994275","name":"NORSK FISKEEKSPORT AS","group":"wholesale","naceCode":"46.322","naceDescription":"Engroshandel med fisk, skalldyr og bløtdyr","employees":45,"parentOrgNr":"832459372","parentName":"NORSK FISKEEKSPORT AS","parentOrgForm":"AS","address":"Tinnegrendvegen 93","postnummer":"3683","poststed":"NOTODDEN","kommunenummer":"4005","precision":"address"}},
{"type":"Feature","geometry":{"type":"Point","coordinates":[10.78055,59.73198]},"properties":{"orgNr":"971286245","name":"KOLLY AS","group":"wholesale","naceCode":"46.390","naceDescription":"Engroshandel med bredt utvalg av nærings- og nytelsesmidler","employees":137,"parentOrgNr":"983415814","parentName":"KOLLY AS","parentOrgForm":"AS","address":"Kveldroveien 5","postnummer":"1407","poststed":"VINTERBRO","kommunenummer":"3218","precision":"address"}},
{"type":"Feature","geometry":{"type":"Point","coordinates":[5.31798,60.40234]},"properties":{"orgNr":"971656891","name":"LERØY NORGE AS AVD BERGEN","group":"wholesale","naceCode":"46.322","naceDescription":"Engroshandel med fisk, skalldyr og bløtdyr","employees":20,"parentOrgNr":"919095105","parentName":"LERØY NORGE AS","parentOrgForm":"AS","address":"Skuteviksbodene 1","postnummer":"5035","poststed":"BERGEN","kommunenummer":"4601","precision":"address"}},
{"type":"Feature","geometry":{"type":"Point","coordinates":[10.86841,59.93985]},"properties":{"orgNr":"971659726","name":"BAMA STORKJØKKEN OSLO AS","group":"wholesale","naceCode":"46.310","naceDescription":"Engroshandel med frukt og grønnsaker","employees":74,"parentOrgNr":"936966802","parentName":"BAMA STORKJØKKEN OSLO AS","parentOrgForm":"AS","address":"Nedre Kalbakkvei 40","postnummer":"1081","poststed":"OSLO","kommunenummer":"0301","precision":"address"}},
{"type":"Feature","geometry":{"type":"Point","coordinates":[10.88345,59.94252]},"properties":{"orgNr":"971661747","name":"SLÅTTO MARKETING AS","group":"wholesale","naceCode":"46.390","naceDescription":"Engroshandel med bredt utvalg av nærings- og nytelsesmidler","employees":20,"parentOrgNr":"910559001","parentName":"SLÅTTO MARKETING AS","parentOrgForm":"AS","address":"Professor Birkelands vei 34","postnummer":"1081","poststed":"OSLO","kommunenummer":"0301","precision":"address"}},
{"type":"Feature","geometry":{"type":"Point","coordinates":[5.23493,60.28213]},"properties":{"orgNr":"971663928","name":"MÅKESTAD T L AS","group":"wholesale","naceCode":"46.310","naceDescription":"Engroshandel med frukt og grønnsaker","employees":82,"parentOrgNr":"931539280","parentName":"T L MÅKESTAD AS","parentOrgForm":"AS","address":"Lønningshaugen 2","postnummer":"5258","poststed":"BLOMSTERDALEN","kommunenummer":"4601","precision":"address"}},
{"type":"Feature","geometry":{"type":"Point","coordinates":[10.81025,59.9331]},"properties":{"orgNr":"971675918","name":"ARNE B CORNELIUSSEN AS AVD OSLO","group":"wholesale","naceCode":"46.321","naceDescription":"Engroshandel med kjøtt og kjøttvarer","employees":32,"parentOrgNr":"947695436","parentName":"ARNE B CORNELIUSSEN AS","parentOrgForm":"AS","address":"Kabelgaten 37","postnummer":"0580","poststed":"OSLO","kommunenummer":"0301","precision":"postnummer"}},
{"type":"Feature","geometry":{"type":"Point","coordinates":[10.86841,59.93985]},"properties":{"orgNr":"971681543","name":"EKRHEIM K AS","group":"wholesale","naceCode":"46.390","naceDescription":"Engroshandel med bredt utvalg av nærings- og nytelsesmidler","employees":66,"parentOrgNr":"911363259","parentName":"K. EKRHEIM AS","parentOrgForm":"AS","address":"Nedre Kalbakkvei 40","postnummer":"1081","poststed":"OSLO","kommunenummer":"0301","precision":"address"}},
{"type":"Feature","geometry":{"type":"Point","coordinates":[10.88227,59.94238]},"properties":{"orgNr":"971685077","name":"CARL EVENSEN EFTF AS","group":"wholesale","naceCode":"46.390","naceDescription":"Engroshandel med bredt utvalg av nærings- og nytelsesmidler","employees":42,"parentOrgNr":"911545446","parentName":"CARL EVENSEN EFTF AS","parentOrgForm":"AS","address":"Professor Birkelands vei 32B","postnummer":"1081","poststed":"OSLO","kommunenummer":"0301","precision":"address"}},
{"type":"Feature","geometry":{"type":"Point","coordinates":[6.32805,62.4293]},"properties":{"orgNr":"971693355","name":"GIØRTZ H I SØNNER AS","group":"wholesale","naceCode":"46.390","naceDescription":"Engroshandel med bredt utvalg av nærings- og nytelsesmidler","employees":243,"parentOrgNr":"936710379","parentName":"H I Giørtz Sønner AS","parentOrgForm":"AS","address":"Sjukenesstranda 100","postnummer":"6037","poststed":"EIDSNES","kommunenummer":"1531","precision":"address"}},
{"type":"Feature","geometry":{"type":"Point","coordinates":[10.83418,59.76636]},"properties":{"orgNr":"971715405","name":"ENGROSFRUKT LANGHUS","group":"wholesale","naceCode":"46.310","naceDescription":"Engroshandel med frukt og grønnsaker","employees":31,"parentOrgNr":"913154975","parentName":"ENGROSFRUKT LANGHUS AS","parentOrgForm":"AS","address":"Håndverksveien 31","postnummer":"1405","poststed":"LANGHUS","kommunenummer":"3207","precision":"address"}},
{"type":"Feature","geometry":{"type":"Point","coordinates":[10.37593,63.34519]},"properties":{"orgNr":"971716312","name":"BAMA STORKJØKKEN AS AVD 170 TRONDHEIM","group":"wholesale","naceCode":"46.310","naceDescription":"Engroshandel med frukt og grønnsaker","employees":31,"parentOrgNr":"995518333","parentName":"BAMA STORKJØKKEN AS","parentOrgForm":"AS","address":"Isdamvegen 2","postnummer":"7075","poststed":"TILLER","kommunenummer":"5001","precision":"address"}},
{"type":"Feature","geometry":{"type":"Point","coordinates":[7.28832,62.771]},"properties":{"orgNr":"971723408","name":"ASKO MOLDE AS","group":"wholesale","naceCode":"46.390","naceDescription":"Engroshandel med bredt utvalg av nærings- og nytelsesmidler","employees":119,"parentOrgNr":"813612992","parentName":"ASKO MOLDE AS","parentOrgForm":"AS","address":"Årøsetervegen 20","postnummer":"6422","poststed":"MOLDE","kommunenummer":"1506","precision":"address"}},
{"type":"Feature","geometry":{"type":"Point","coordinates":[10.07544,59.05612]},"properties":{"orgNr":"971724986","name":"ASKO VESTFOLD TELEMARK AS","group":"wholesale","naceCode":"46.390","naceDescription":"Engroshandel med bredt utvalg av nærings- og nytelsesmidler","employees":202,"parentOrgNr":"933129950","parentName":"ASKO VESTFOLD TELEMARK AS","parentOrgForm":"AS","address":"Hegdalveien 87","postnummer":"3261","poststed":"LARVIK","kommunenummer":"3909","precision":"address"}},
{"type":"Feature","geometry":{"type":"Point","coordinates":[10.88412,59.95035]},"properties":{"orgNr":"971725044","name":"LERØY NORGE AS AVD LAKS&VILT OSLO","group":"wholesale","naceCode":"46.322","naceDescription":"Engroshandel med fisk, skalldyr og bløtdyr","employees":51,"parentOrgNr":"919095105","parentName":"LERØY NORGE AS","parentOrgForm":"AS","address":"Stanseveien 33","postnummer":"0976","poststed":"OSLO","kommunenummer":"0301","precision":"address"}},
{"type":"Feature","geometry":{"type":"Point","coordinates":[10.86944,59.71884]},"properties":{"orgNr":"971729627","name":"DEN STOLTE HANE AS AVD SKI","group":"wholesale","naceCode":"46.330","naceDescription":"Engroshandel med meierivarer, egg, matolje og -fett","employees":25,"parentOrgNr":"980403815","parentName":"DEN STOLTE HANE AS","parentOrgForm":"AS","address":"Glynitveien 9","postnummer":"1400","poststed":"SKI","kommunenummer":"3207","precision":"address"}},
{"type":"Feature","geometry":{"type":"Point","coordinates":[10.37593,63.34519]},"properties":{"orgNr":"971731990","name":"ASKO MIDT-NORGE AS AVD TRONDHEIM","group":"wholesale","naceCode":"46.390","naceDescription":"Engroshandel med bredt utvalg av nærings- og nytelsesmidler","employees":363,"parentOrgNr":"979334109","parentName":"ASKO MIDT-NORGE AS","parentOrgForm":"AS","address":"Isdamvegen 2","postnummer":"7075","poststed":"TILLER","kommunenummer":"5001","precision":"address"}},
{"type":"Feature","geometry":{"type":"Point","coordinates":[7.47147,61.10109]},"properties":{"orgNr":"971732431","name":"LÆRDAL GRØNT","group":"wholesale","naceCode":"46.310","naceDescription":"Engroshandel med frukt og grønnsaker","employees":40,"parentOrgNr":"926201948","parentName":"SOGN FRUKT OG GRØNT SA","parentOrgForm":"SA","address":"Grandavegen 6","postnummer":"6887","poststed":"LÆRDAL","kommunenummer":"4642","precision":"address"}},
{"type":"Feature","geometry":{"type":"Point","coordinates":[13.19448,65.83573]},"properties":{"orgNr":"971746688","name":"NYGAARD PAUL AS","group":"wholesale","naceCode":"46.380","naceDescription":"Engroshandel med andre næringsmidler","employees":31,"parentOrgNr":"928913724","parentName":"PAUL NYGAARD AS","parentOrgForm":"AS","address":"Øyfjellg 16","postnummer":"8656","poststed":"MOSJØEN","kommunenummer":"1824","precision":"postnummer"}},
{"type":"Feature","geometry":{"type":"Point","coordinates":[7.79464,63.10865]},"properties":{"orgNr":"971752750","name":"TP-ENGROS AS","group":"wholesale","naceCode":"46.390","naceDescription":"Engroshandel med bredt utvalg av nærings- og nytelsesmidler","employees":29,"parentOrgNr":"843298702","parentName":"TP-ENGROS AS","parentOrgForm":"AS","address":"Haukvikenga 4","postnummer":"6517","poststed":"KRISTIANSUND N","kommunenummer":"1505","precision":"address"}},
{"type":"Feature","geometry":{"type":"Point","coordinates":[10.68629,59.9184]},"properties":{"orgNr":"971753196","name":"CONAXESS TRADE NORWAY AS","group":"wholesale","naceCode":"46.360","naceDescription":"Engroshandel med sukker, sjokolade og sukkervarer","employees":54,"parentOrgNr":"915191096","parentName":"CONAXESS TRADE NORWAY AS","parentOrgForm":"AS","address":"Karenslyst allé 2","postnummer":"0278","poststed":"OSLO","kommunenummer":"0301","precision":"address"}},
{"type":"Feature","geometry":{"type":"Point","coordinates":[14.13988,66.32062]},"properties":{"orgNr":"971790547","name":"BARE FRUKT & GRØNT AS AVD MO I RANA","group":"wholesale","naceCode":"46.310","naceDescription":"Engroshandel med frukt og grønnsaker","employees":38,"parentOrgNr":"995518023","parentName":"BARE FRUKT & GRØNT AS","parentOrgForm":"AS","address":"Nordre gate 6","postnummer":"8622","poststed":"MO I RANA","kommunenummer":"1833","precision":"address"}},
{"type":"Feature","geometry":{"type":"Point","coordinates":[10.74458,59.57455]},"properties":{"orgNr":"971798513","name":"OLUF LORENTZEN AS","group":"wholesale","naceCode":"46.390","naceDescription":"Engroshandel med bredt utvalg av nærings- og nytelsesmidler","employees":98,"parentOrgNr":"942535937","parentName":"OLUF LORENTZEN AS","parentOrgForm":"AS","address":"Toveien 22","postnummer":"1540","poststed":"VESTBY","kommunenummer":"3216","precision":"address"}},
{"type":"Feature","geometry":{"type":"Point","coordinates":[14.13494,66.31969]},"properties":{"orgNr":"971798831","name":"ARNE SJULE AS","group":"wholesale","naceCode":"46.390","naceDescription":"Engroshandel med bredt utvalg av nærings- og nytelsesmidler","employees":43,"parentOrgNr":"913450566","parentName":"ARNE SJULE AS","parentOrgForm":"AS","address":"Moloveien 8","postnummer":"8622","poststed":"MO I RANA","kommunenummer":"1833","precision":"address"}},
{"type":"Feature","geometry":{"type":"Point","coordinates":[5.26684,60.30054]},"properties":{"orgNr":"971799145","name":"FÔRSYN TROYE AS AVD BERGEN","group":"wholesale","naceCode":"46.380","naceDescription":"Engroshandel med andre næringsmidler","employees":50,"parentOrgNr":"941945554","parentName":"FÔRSYN TROYE AS","parentOrgForm":"AS","address":"Kokstadvegen 35B","postnummer":"5257","poststed":"KOKSTAD","kommunenummer":"4601","precision":"address"}},
{"type":"Feature","geometry":{"type":"Point","coordinates":[10.91588,60.89207]},"properties":{"orgNr":"971812117","name":"ASKO HEDMARK AS","group":"wholesale","naceCode":"46.390","naceDescription":"Engroshandel med bredt utvalg av nærings- og nytelsesmidler","employees":371,"parentOrgNr":"918710507","parentName":"ASKO HEDMARK AS","parentOrgForm":"AS","address":"Skansvegen 5","postnummer":"2383","poststed":"BRUMUNDDAL","kommunenummer":"3411","precision":"address"}},
{"type":"Feature","geometry":{"type":"Point","coordinates":[10.86324,59.94486]},"properties":{"orgNr":"971825197","name":"ASKO OSLO AS","group":"wholesale","naceCode":"46.390","naceDescription":"Engroshandel med bredt utvalg av nærings- og nytelsesmidler","employees":473,"parentOrgNr":"982081998","parentName":"ASKO OSLO AS","parentOrgForm":"AS","address":"Nedre Kalbakkvei 22","postnummer":"0950","poststed":"OSLO","kommunenummer":"0301","precision":"address"}},
{"type":"Feature","geometry":{"type":"Point","coordinates":[10.19655,59.56709]},"properties":{"orgNr":"971832878","name":"FINSTAD ENGROS AS","group":"wholesale","naceCode":"46.310","naceDescription":"Engroshandel med frukt og grønnsaker","employees":34,"parentOrgNr":"919803053","parentName":"FINSTAD ENGROS AS","parentOrgForm":"AS","address":"Orhusveien 2","postnummer":"3070","poststed":"SANDE I VESTFOLD","kommunenummer":"3903","precision":"address"}},
{"type":"Feature","geometry":{"type":"Point","coordinates":[10.83418,59.76636]},"properties":{"orgNr":"971849401","name":"ØKERN ENGROS AS","group":"wholesale","naceCode":"46.310","naceDescription":"Engroshandel med frukt og grønnsaker","employees":22,"parentOrgNr":"965714138","parentName":"ØKERN ENGROS AS","parentOrgForm":"AS","address":"Håndverksveien 31","postnummer":"1405","poststed":"LANGHUS","kommunenummer":"3207","precision":"address"}},
{"type":"Feature","geometry":{"type":"Point","coordinates":[10.68188,59.92253]},"properties":{"orgNr":"971873531","name":"MARS NORGE AS","group":"wholesale","naceCode":"46.390","naceDescription":"Engroshandel med bredt utvalg av nærings- og nytelsesmidler","employees":28,"parentOrgNr":"924869593","parentName":"MARS NORGE AS","parentOrgForm":"AS","address":"Drammensveien 151","postnummer":"0277","poststed":"OSLO","kommunenummer":"0301","precision":"address"}},
{"type":"Feature","geometry":{"type":"Point","coordinates":[16.58866,68.77918]},"properties":{"orgNr":"971880473","name":"SERVICENORD ENGROS AS","group":"wholesale","naceCode":"46.390","naceDescription":"Engroshandel med bredt utvalg av nærings- og nytelsesmidler","employees":70,"parentOrgNr":"939003983","parentName":"SERVICENORD ENGROS AS","parentOrgForm":"AS","address":"Stangnesterminalen 2F","postnummer":"9409","poststed":"HARSTAD","kommunenummer":"5503","precision":"address"}},
{"type":"Feature","geometry":{"type":"Point","coordinates":[8.35727,58.23888]},"properties":{"orgNr":"971919191","name":"ASKO AGDER","group":"wholesale","naceCode":"46.390","naceDescription":"Engroshandel med bredt utvalg av nærings- og nytelsesmidler","employees":316,"parentOrgNr":"913117883","parentName":"ASKO AGDER AS","parentOrgForm":"AS","address":"Vestre kystvei 191","postnummer":"4790","poststed":"LILLESAND","kommunenummer":"4215","precision":"address"}},
{"type":"Feature","geometry":{"type":"Point","coordinates":[10.29038,59.80566]},"properties":{"orgNr":"972007315","name":"SERVICEGROSSISTEN ØST AS","group":"wholesale","naceCode":"46.390","naceDescription":"Engroshandel med bredt utvalg av nærings- og nytelsesmidler","employees":174,"parentOrgNr":"942545258","parentName":"SERVICEGROSSISTEN ØST AS","parentOrgForm":"AS","address":"Drammensveien 185","postnummer":"3420","poststed":"LIERSKOGEN","kommunenummer":"3312","precision":"address"}},
{"type":"Feature","geometry":{"type":"Point","coordinates":[10.83281,59.93002]},"properties":{"orgNr":"972073814","name":"STORCASH NORGE AS BROBEKK STORCASH","group":"wholesale","naceCode":"46.390","naceDescription":"Engroshandel med bredt utvalg av nærings- og nytelsesmidler","employees":66,"parentOrgNr":"930258008","parentName":"STORCASH NORGE AS","parentOrgForm":"AS","address":"Brobekkveien 80B","postnummer":"0582","poststed":"OSLO","kommunenummer":"0301","precision":"postnummer"}},
{"type":"Feature","geometry":{"type":"Point","coordinates":[5.05292,61.60144]},"properties":{"orgNr":"972075221","name":"SAFARI ENGROS AS","group":"wholesale","naceCode":"46.390","naceDescription":"Engroshandel med bredt utvalg av nærings- og nytelsesmidler","employees":21,"parentOrgNr":"988403245","parentName":"SAFARI ENGROS AS","parentOrgForm":"AS","address":"Bygg 3, Fjordbase","postnummer":"6900","poststed":"FLORØ","kommunenummer":"4602","precision":"postnummer"}},
{"type":"Feature","geometry":{"type":"Point","coordinates":[11.07121,60.0258]},"properties":{"orgNr":"972079359","name":"HAVI LOGISTICS AS","group":"wholesale","naceCode":"46.390","naceDescription":"Engroshandel med bredt utvalg av nærings- og nytelsesmidler","employees":87,"parentOrgNr":"941571859","parentName":"HAVI LOGISTICS AS","parentOrgForm":"AS","address":"Fjellboveien 8","postnummer":"2016","poststed":"FROGNER","kommunenummer":"3205","precision":"address"}},
{"type":"Feature","geometry":{"type":"Point","coordinates":[6.566,60.59641]},"properties":{"orgNr":"972116610","name":"ENCON AS","group":"wholesale","naceCode":"46.390","naceDescription":"Engroshandel med bredt utvalg av nærings- og nytelsesmidler","employees":36,"parentOrgNr":"915040608","parentName":"ENCON AS","parentOrgForm":"AS","address":"Dalsmoen 5","postnummer":"5709","poststed":"VOSS","kommunenummer":"4621","precision":"address"}},
{"type":"Feature","geometry":{"type":"Point","coordinates":[5.46882,60.39874]},"properties":{"orgNr":"972129607","name":"BAMA STORKJØKKEN AS AVD BERGEN","group":"wholesale","naceCode":"46.310","naceDescription":"Engroshandel med frukt og grønnsaker","employees":32,"parentOrgNr":"995518333","parentName":"BAMA STORKJØKKEN AS","parentOrgForm":"AS","address":"Magnusvegen 10","postnummer":"5262","poststed":"ARNATVEIT","kommunenummer":"4601","precision":"address"}},
{"type":"Feature","geometry":{"type":"Point","coordinates":[10.92371,60.8847]},"properties":{"orgNr":"972134244","name":"GILBERG ENGROS MENYPARTNER AS","group":"wholesale","naceCode":"46.390","naceDescription":"Engroshandel med bredt utvalg av nærings- og nytelsesmidler","employees":20,"parentOrgNr":"912649091","parentName":"GILBERG ENGROS MENYPARTNER AS","parentOrgForm":"AS","address":"Strandsagvegen 45","postnummer":"2383","poststed":"BRUMUNDDAL","kommunenummer":"3411","precision":"address"}},
{"type":"Feature","geometry":{"type":"Point","coordinates":[10.25934,59.24315]},"properties":{"orgNr":"972139793","name":"BAMA STORKJØKKEN AS AVD VESTFOLD","group":"wholesale","naceCode":"46.310","naceDescription":"Engroshandel med frukt og grønnsaker","employees":36,"parentOrgNr":"995518333","parentName":"BAMA STORKJØKKEN AS","parentOrgForm":"AS","address":"Borgeskogen 9","postnummer":"3160","poststed":"STOKKE","kommunenummer":"3907","precision":"address"}},
{"type":"Feature","geometry":{"type":"Point","coordinates":[10.38268,59.3102]},"properties":{"orgNr":"972276871","name":"VITALKOST AS","group":"wholesale","naceCode":"46.380","naceDescription":"Engroshandel med andre næringsmidler","employees":25,"parentOrgNr":"961937434","parentName":"VITALKOST AS","parentOrgForm":"AS","address":"Wirgenes vei 11","postnummer":"3157","poststed":"BARKÅKER","kommunenummer":"3905","precision":"address"}},
{"type":"Feature","geometry":{"type":"Point","coordinates":[5.07199,60.26126]},"properties":{"orgNr":"972292222","name":"SEKKINGSTAD AS AVD SALG AV FISK","group":"wholesale","naceCode":"46.322","naceDescription":"Engroshandel med fisk, skalldyr og bløtdyr","employees":38,"parentOrgNr":"963950837","parentName":"SEKKINGSTAD AS","parentOrgForm":"AS","address":"SKAGANESET","postnummer":"5382","poststed":"SKOGSVÅG","kommunenummer":"4626","precision":"postnummer"}},
{"type":"Feature","geometry":{"type":"Point","coordinates":[6.70427,58.28358]},"properties":{"orgNr":"972308773","name":"PB DISTRIBUSJON AS","group":"wholesale","naceCode":"46.380","naceDescription":"Engroshandel med andre næringsmidler","employees":48,"parentOrgNr":"964997411","parentName":"PB DISTRIBUSJON AS","parentOrgForm":"AS","address":"Nulandsvika 4","postnummer":"4405","poststed":"FLEKKEFJORD","kommunenummer":"4207","precision":"address"}},
{"type":"Feature","geometry":{"type":"Point","coordinates":[10.84692,59.77061]},"properties":{"orgNr":"972318159","name":"BREWERY INTERNATIONAL AS","group":"wholesale","naceCode":"46.340","naceDescription":"Engroshandel med drikkevarer","employees":69,"parentOrgNr":"927088428","parentName":"BREWERY INTERNATIONAL AS","parentOrgForm":"AS","address":"Regnbueveien 6","postnummer":"1405","poststed":"LANGHUS","kommunenummer":"3207","precision":"address"}},
{"type":"Feature","geometry":{"type":"Point","coordinates":[10.70727,59.93204]},"properties":{"orgNr":"972334448","name":"PRIZELIUS ROBERT AS","group":"wholesale","naceCode":"46.340","naceDescription":"Engroshandel med drikkevarer","employees":35,"parentOrgNr":"865831072","parentName":"ROBERT PRIZELIUS AS","parentOrgForm":"AS","address":"Sørkedalsveien 10 C","postnummer":"0369","poststed":"OSLO","kommunenummer":"0301","precision":"postnummer"}},
{"type":"Feature","geometry":{"type":"Point","coordinates":[10.88696,59.93563]},"properties":{"orgNr":"972336610","name":"KRISTIANIA GOURMET AS","group":"wholesale","naceCode":"46.360","naceDescription":"Engroshandel med sukker, sjokolade og sukkervarer","employees":22,"parentOrgNr":"966427582","parentName":"KRISTIANIA GOURMET AS","parentOrgForm":"AS","address":"Lindeberg næringsvei 28","postnummer":"1067","poststed":"OSLO","kommunenummer":"0301","precision":"address"}},
{"type":"Feature","geometry":{"type":"Point","coordinates":[10.39796,63.39659]},"properties":{"orgNr":"972344273","name":"BARE FRUKT & GRØNT AS AVD TRONDHEIM","group":"wholesale","naceCode":"46.310","naceDescription":"Engroshandel med frukt og grønnsaker","employees":91,"parentOrgNr":"995518023","parentName":"BARE FRUKT & GRØNT AS","parentOrgForm":"AS","address":"Sluppenvegen 10","postnummer":"7037","poststed":"TRONDHEIM","kommunenummer":"5001","precision":"address"}},
{"type":"Feature","geometry":{"type":"Point","coordinates":[5.46416,60.43098]},"properties":{"orgNr":"972351822","name":"SUNKOST LOGISTIKK AS","group":"wholesale","naceCode":"46.380","naceDescription":"Engroshandel med andre næringsmidler","employees":32,"parentOrgNr":"984885474","parentName":"SUNKOST LOGISTIKK AS","parentOrgForm":"AS","address":"Storaneset 12","postnummer":"5260","poststed":"INDRE ARNA","kommunenummer":"4601","precision":"address"}},
{"type":"Feature","geometry":{"type":"Point","coordinates":[5.11496,61.93545]},"properties":{"orgNr":"972395625","name":"COAST SEAFOOD AS","group":"wholesale","naceCode":"46.322","naceDescription":"Engroshandel med fisk, skalldyr og bløtdyr","employees":36,"parentOrgNr":"971003936","parentName":"COAST SEAFOOD AS","parentOrgForm":"AS","address":"Sjøgata 30","postnummer":"6700","poststed":"MÅLØY","kommunenummer":"4602","precision":"address"}},
{"type":"Feature","geometry":{"type":"Point","coordinates":[5.33802,60.51521]},"properties":{"orgNr":"972400688","name":"REMA DISTRIBUSJON NORGE AS DISTRIBUNAL BERGEN","group":"wholesale","naceCode":"46.390","naceDescription":"Engroshandel med bredt utvalg av nærings- og nytelsesmidler","employees":145,"parentOrgNr":"894759372","parentName":"REMA DISTRIBUSJON NORGE AS","parentOrgForm":"AS","address":"Hylkjelia 10","postnummer":"5109","poststed":"HYLKJE","kommunenummer":"4601","precision":"address"}},
{"type":"Feature","geometry":{"type":"Point","coordinates":[10.49241,59.90949]},"properties":{"orgNr":"972403016","name":"UNITED BAKERIES NORWAY AS","group":"wholesale","naceCode":"46.390","naceDescription":"Engroshandel med bredt utvalg av nærings- og nytelsesmidler","employees":61,"parentOrgNr":"911728850","parentName":"UNITED BAKERIES NORWAY AS","parentOrgForm":"AS","address":"Rudssletta 35","postnummer":"1351","poststed":"RUD","kommunenummer":"3201","precision":"address"}},
{"type":"Feature","geometry":{"type":"Point","coordinates":[9.21004,59.38632]},"properties":{"orgNr":"972403652","name":"TELEFRUKT AS","group":"wholesale","naceCode":"46.310","naceDescription":"Engroshandel med frukt og grønnsaker","employees":66,"parentOrgNr":"970983503","parentName":"TELEFRUKT AS","parentOrgForm":"AS","address":"Sauheradvegen 111","postnummer":"3810","poststed":"GVARV","kommunenummer":"4020","precision":"address"}},
{"type":"Feature","geometry":{"type":"Point","coordinates":[10.81646,59.91176]},"properties":{"orgNr":"972614262","name":"FJORDLAND AS","group":"wholesale","naceCode":"46.390","naceDescription":"Engroshandel med bredt utvalg av nærings- og nytelsesmidler","employees":70,"parentOrgNr":"936661386","parentName":"FJORDLAND AS","parentOrgForm":"AS","address":"Brynsengveien 10","postnummer":"0667","poststed":"OSLO","kommunenummer":"0301","precision":"address"}},
{"type":"Feature","geometry":{"type":"Point","coordinates":[10.8264,59.91335]},"properties":{"orgNr":"972818291","name":"SELECTA NORWAY AS AVD SALG","group":"wholesale","naceCode":"46.370","naceDescription":"Engroshandel med kaffe, te, kakao og krydder","employees":143,"parentOrgNr":"960674693","parentName":"SELECTA NORWAY AS","parentOrgForm":"AS","address":"Ole Deviks vei 6C","postnummer":"0666","poststed":"OSLO","kommunenummer":"0301","precision":"address"}},
{"type":"Feature","geometry":{"type":"Point","coordinates":[5.70156,58.89099]},"properties":{"orgNr":"973099922","name":"BARE FRUKT & GRØNT AS AVD 240 BARE STAVANGER","group":"wholesale","naceCode":"46.310","naceDescription":"Engroshandel med frukt og grønnsaker","employees":38,"parentOrgNr":"995518023","parentName":"BARE FRUKT & GRØNT AS","parentOrgForm":"AS","address":"Koppholen 13","postnummer":"4313","poststed":"SANDNES","kommunenummer":"1108","precision":"address"}},
{"type":"Feature","geometry":{"type":"Point","coordinates":[10.72731,59.91064]},"properties":{"orgNr":"973100343","name":"AS NESTLÉ NORGE AVD SALG IMPORTVARER/ADM","group":"wholesale","naceCode":"46.390","naceDescription":"Engroshandel med bredt utvalg av nærings- og nytelsesmidler","employees":81,"parentOrgNr":"814576612","parentName":"AS NESTLÉ NORGE","parentOrgForm":"AS","address":"Grundingen 6","postnummer":"0250","poststed":"OSLO","kommunenummer":"0301","precision":"address"}},
{"type":"Feature","geometry":{"type":"Point","coordinates":[10.36952,63.34215]},"properties":{"orgNr":"973100858","name":"COOP NORGE SA AVD LAGER TRONDHEIM","group":"wholesale","naceCode":"46.390","naceDescription":"Engroshandel med bredt utvalg av nærings- og nytelsesmidler","employees":232,"parentOrgNr":"936560288","parentName":"COOP NORGE SA","parentOrgForm":"SA","address":"Djupmyra 27A","postnummer":"7075","poststed":"TILLER","kommunenummer":"5001","precision":"address"}},
{"type":"Feature","geometry":{"type":"Point","coordinates":[10.48958,59.87341]},"properties":{"orgNr":"973103652","name":"PALS AS AVD ENGROSHANDEL/ADMINISTRASJON","group":"wholesale","naceCode":"46.380","naceDescription":"Engroshandel med andre næringsmidler","employees":46,"parentOrgNr":"915101739","parentName":"PALS AS","parentOrgForm":"AS","address":"Billingstadsletta 38","postnummer":"1396","poststed":"BILLINGSTAD","kommunenummer":"3203","precision":"address"}},
{"type":"Feature","geometry":{"type":"Point","coordinates":[5.32099,60.39828]},"properties":{"orgNr":"973118617","name":"NORGES SILDESALGSLAG SA","group":"wholesale","naceCode":"46.322","naceDescription":"Engroshandel med fisk, skalldyr og bløtdyr","employees":49,"parentOrgNr":"951206091","parentName":"NORGES SILDESALGSLAG SA","parentOrgForm":"SA","address":"Slottsgaten 3","postnummer":"5003","poststed":"BERGEN","kommunenummer":"4601","precision":"address"}},
{"type":"Feature","geometry":{"type":"Point","coordinates":[11.09518,60.77704]},"properties":{"orgNr":"973123742","name":"BARILLA NORGE AS","group":"wholesale","naceCode":"46.380","naceDescription":"Engroshandel med andre næringsmidler","employees":45,"parentOrgNr":"943599416","parentName":"BARILLA NORGE AS","parentOrgForm":"AS","address":"Sandvikavegen 55","postnummer":"2312","poststed":"OTTESTAD","kommunenummer":"3413","precision":"address"}},
{"type":"Feature","geometry":{"type":"Point","coordinates":[5.46882,60.39874]},"properties":{"orgNr":"973156624","name":"ASKO VEST AS","group":"wholesale","naceCode":"46.390","naceDescription":"Engroshandel med bredt utvalg av nærings- og nytelsesmidler","employees":563,"parentOrgNr":"979487916","parentName":"ASKO VEST AS","parentOrgForm":"AS","address":"Magnusvegen 10","postnummer":"5262","poststed":"ARNATVEIT","kommunenummer":"4601","precision":"address"}},
{"type":"Feature","geometry":{"type":"Point","coordinates":[5.68632,58.90049]},"properties":{"orgNr":"973157957","name":"D DANIELSEN AS","group":"wholesale","naceCode":"46.390","naceDescription":"Engroshandel med bredt utvalg av nærings- og nytelsesmidler","employees":80,"parentOrgNr":"911794136","parentName":"D. DANIELSEN AS","parentOrgForm":"AS","address":"Moseidveien 35","postnummer":"4033","poststed":"STAVANGER","kommunenummer":"1124","precision":"address"}},
{"type":"Feature","geometry":{"type":"Point","coordinates":[14.40938,67.29724]},"properties":{"orgNr":"973175793","name":"ASKO MIDT-NORGE AS AVD BODØ","group":"wholesale","naceCode":"46.390","naceDescription":"Engroshandel med bredt utvalg av nærings- og nytelsesmidler","employees":23,"parentOrgNr":"979334109","parentName":"ASKO MIDT-NORGE AS","parentOrgForm":"AS","address":"Tegelverkveien","postnummer":"8012","poststed":"BODØ","kommunenummer":"1804","precision":"postnummer"}},
{"type":"Feature","geometry":{"type":"Point","coordinates":[9.28518,60.97185]},"properties":{"orgNr":"973257935","name":"ASKO OPPLAND AS","group":"wholesale","naceCode":"46.390","naceDescription":"Engroshandel med bredt utvalg av nærings- og nytelsesmidler","employees":101,"parentOrgNr":"971059435","parentName":"ASKO OPPLAND AS","parentOrgForm":"AS","address":"Markavegen 20","postnummer":"2920","poststed":"LEIRA I VALDRES","kommunenummer":"3451","precision":"address"}},
{"type":"Feature","geometry":{"type":"Point","coordinates":[10.02896,59.74984]},"properties":{"orgNr":"973259016","name":"MEDIVATUS AS","group":"wholesale","naceCode":"46.380","naceDescription":"Engroshandel med andre næringsmidler","employees":38,"parentOrgNr":"819807892","parentName":"MEDIVATUS AS","parentOrgForm":"AS","address":"Orkidehøgda 3","postnummer":"3050","poststed":"MJØNDALEN","kommunenummer":"3301","precision":"address"}},
{"type":"Feature","geometry":{"type":"Point","coordinates":[10.83418,59.76636]},"properties":{"orgNr":"973263293","name":"INTERFRUKT SA","group":"wholesale","naceCode":"46.310","naceDescription":"Engroshandel med frukt og grønnsaker","employees":50,"parentOrgNr":"941298036","parentName":"INTERFRUKT SA","parentOrgForm":"SA","address":"Berghagan Nord, Håndverksveien 31","postnummer":"1405","poststed":"LANGHUS","kommunenummer":"3207","precision":"address"}},
{"type":"Feature","geometry":{"type":"Point","coordinates":[10.86841,59.93985]},"properties":{"orgNr":"973623494","name":"BAMA GRUPPEN AS NYLAND SYD","group":"wholesale","naceCode":"46.310","naceDescription":"Engroshandel med frukt og grønnsaker","employees":469,"parentOrgNr":"914224314","parentName":"BAMA GRUPPEN AS","parentOrgForm":"AS","address":"Nedre Kalbakkvei 40","postnummer":"1081","poststed":"OSLO","kommunenummer":"0301","precision":"address"}},
{"type":"Feature","geometry":{"type":"Point","coordinates":[10.85795,59.94348]},"properties":{"orgNr":"973998846","name":"SJØMATHUSET AS AVD SALG OSLO","group":"wholesale","naceCode":"46.322","naceDescription":"Engroshandel med fisk, skalldyr og bløtdyr","employees":51,"parentOrgNr":"971190744","parentName":"SJØMATHUSET AS","parentOrgForm":"AS","address":"Sven Oftedals vei 10","postnummer":"0950","poststed":"OSLO","kommunenummer":"0301","precision":"address"}},
{"type":"Feature","geometry":{"type":"Point","coordinates":[5.93029,58.74313]},"properties":{"orgNr":"974083493","name":"ASKO ROGALAND AS","group":"wholesale","naceCode":"46.390","naceDescription":"Engroshandel med bredt utvalg av nærings- og nytelsesmidler","employees":376,"parentOrgNr":"923622845","parentName":"ASKO ROGALAND AS","parentOrgForm":"AS","address":"Skurvemarka 21","postnummer":"4331","poststed":"ÅLGÅRD","kommunenummer":"1122","precision":"address"}},
{"type":"Feature","geometry":{"type":"Point","coordinates":[5.32882,60.38079]},"properties":{"orgNr":"974090694","name":"LERØY SEAFOOD AS","group":"wholesale","naceCode":"46.322","naceDescription":"Engroshandel med fisk, skalldyr og bløtdyr","employees":187,"parentOrgNr":"913859529","parentName":"LERØY SEAFOOD AS","parentOrgForm":"AS","address":"Thormøhlens gate 51B","postnummer":"5006","poststed":"BERGEN","kommunenummer":"4601","precision":"address"}},
{"type":"Feature","geometry":{"type":"Point","coordinates":[19.14497,69.56704]},"properties":{"orgNr":"974095742","name":"ASKO NORD AS AVD TROMSØ","group":"wholesale","naceCode":"46.390","naceDescription":"Engroshandel med bredt utvalg av nærings- og nytelsesmidler","employees":266,"parentOrgNr":"979655215","parentName":"ASKO NORD AS","parentOrgForm":"AS","address":"Kjoselvmoen 84","postnummer":"9021","poststed":"TROMSDALEN","kommunenummer":"5501","precision":"address"}},
{"type":"Feature","geometry":{"type":"Point","coordinates":[5.73513,58.86985]},"properties":{"orgNr":"974108127","name":"GERMANN VERVIK EFTF A/S","group":"wholesale","naceCode":"46.310","naceDescription":"Engroshandel med frukt og grønnsaker","employees":25,"parentOrgNr":"965776575","parentName":"GERMANN VERVIK EFTF AS","parentOrgForm":"AS","address":"Nikkelveien 3","postnummer":"4313","poststed":"SANDNES","kommunenummer":"1108","precision":"address"}},
{"type":"Feature","geometry":{"type":"Point","coordinates":[10.48989,59.90734]},"properties":{"orgNr":"974109948","name":"FRIGOSCANDIA NORWAY AS HOVEDKONTOR AVD RUD","group":"warehousing","naceCode":"52.100","naceDescription":"Lagring","employees":20,"parentOrgNr":"951417815","parentName":"FRIGOSCANDIA NORWAY AS","parentOrgForm":"AS","address":"Olav Ingstads vei 12","postnummer":"1351","poststed":"RUD","kommunenummer":"3201","precision":"address"}},
{"type":"Feature","geometry":{"type":"Point","coordinates":[10.3661,63.33169]},"properties":{"orgNr":"974206757","name":"REMA DISTRIBUSJON NORGE AS DISTRIBUNAL HEIMDAL","group":"wholesale","naceCode":"46.390","naceDescription":"Engroshandel med bredt utvalg av nærings- og nytelsesmidler","employees":192,"parentOrgNr":"894759372","parentName":"REMA DISTRIBUSJON NORGE AS","parentOrgForm":"AS","address":"Torgardsvegen 3","postnummer":"7093","poststed":"TILLER","kommunenummer":"5001","precision":"address"}},
{"type":"Feature","geometry":{"type":"Point","coordinates":[5.24241,60.28305]},"properties":{"orgNr":"974224666","name":"COOP NORGE SA AVD ENGROS BERGEN","group":"wholesale","naceCode":"46.390","naceDescription":"Engroshandel med bredt utvalg av nærings- og nytelsesmidler","employees":89,"parentOrgNr":"936560288","parentName":"COOP NORGE SA","parentOrgForm":"SA","address":"Lønningsflaten 22","postnummer":"5258","poststed":"BLOMSTERDALEN","kommunenummer":"4601","precision":"address"}},
{"type":"Feature","geometry":{"type":"Point","coordinates":[11.14831,60.1757]},"properties":{"orgNr":"974292300","name":"COOP NORGE SA AVD COOP LOGISTIKKSENTER","group":"wholesale","naceCode":"46.390","naceDescription":"Engroshandel med bredt utvalg av nærings- og nytelsesmidler","employees":515,"parentOrgNr":"936560288","parentName":"COOP NORGE SA","parentOrgForm":"SA","address":"Vilbergvegen 130","postnummer":"2067","poststed":"JESSHEIM","kommunenummer":"3209","precision":"address"}},
{"type":"Feature","geometry":{"type":"Point","coordinates":[5.74287,58.93205]},"properties":{"orgNr":"974292319","name":"COOP NORGE SA AVD LAGER STAVANGER","group":"wholesale","naceCode":"46.390","naceDescription":"Engroshandel med bredt utvalg av nærings- og nytelsesmidler","employees":176,"parentOrgNr":"936560288","parentName":"COOP NORGE SA","parentOrgForm":"SA","address":"Nesflåtveien 4","postnummer":"4018","poststed":"STAVANGER","kommunenummer":"1103","precision":"address"}},
{"type":"Feature","geometry":{"type":"Point","coordinates":[18.92328,69.67864]},"properties":{"orgNr":"974292327","name":"COOP NORGE SA AVD LAGER TROMSØ","group":"wholesale","naceCode":"46.390","naceDescription":"Engroshandel med bredt utvalg av nærings- og nytelsesmidler","employees":72,"parentOrgNr":"936560288","parentName":"COOP NORGE SA","parentOrgForm":"SA","address":"Ringvegen 770","postnummer":"9015","poststed":"TROMSØ","kommunenummer":"5501","precision":"address"}},
{"type":"Feature","geometry":{"type":"Point","coordinates":[10.90088,59.95507]},"properties":{"orgNr":"974295776","name":"COOP NORGE SA AVD HOVEDKONTOR","group":"wholesale","naceCode":"46.390","naceDescription":"Engroshandel med bredt utvalg av nærings- og nytelsesmidler","employees":840,"parentOrgNr":"936560288","parentName":"COOP NORGE SA","parentOrgForm":"SA","address":"Østre Aker vei 264","postnummer":"0977","poststed":"OSLO","kommunenummer":"0301","precision":"address"}},
{"type":"Feature","geometry":{"type":"Point","coordinates":[9.07786,59.59572]},"properties":{"orgNr":"974512181","name":"SANDVIK TRANSPORT AS","group":"wholesale","naceCode":"46.310","naceDescription":"Engroshandel med frukt og grønnsaker","employees":105,"parentOrgNr":"995203707","parentName":"SANDVIK TRANSPORT AS","parentOrgForm":"AS","address":"c/o Runar Bakken, Ørvella øst 109","postnummer":"3677","poststed":"NOTODDEN","kommunenummer":"4005","precision":"address"}},
{"type":"Feature","geometry":{"type":"Point","coordinates":[10.78801,59.91496]},"properties":{"orgNr":"974818302","name":"REITAN HANDEL AS","group":"wholesale","naceCode":"46.390","naceDescription":"Engroshandel med bredt utvalg av nærings- og nytelsesmidler","employees":63,"parentOrgNr":"914526647","parentName":"REITAN RETAIL AS","parentOrgForm":"AS","address":"Gladengveien 2","postnummer":"0661","poststed":"OSLO","kommunenummer":"0301","precision":"address"}},
{"type":"Feature","geometry":{"type":"Point","coordinates":[10.62943,59.89479]},"properties":{"orgNr":"974894211","name":"HERBALIFE NORWAY PRODUCTS AS","group":"wholesale","naceCode":"46.380","naceDescription":"Engroshandel med andre næringsmidler","employees":21,"parentOrgNr":"874698792","parentName":"HERBALIFE NORWAY PRODUCTS AS","parentOrgForm":"AS","address":"Martin Linges vei 25","postnummer":"1364","poststed":"FORNEBU","kommunenummer":"3201","precision":"address"}},
{"type":"Feature","geometry":{"type":"Point","coordinates":[10.87444,59.07941]},"properties":{"orgNr":"974994046","name":"FJORDFISK AS AVD UTGÅRDSKILEN","group":"wholesale","naceCode":"46.322","naceDescription":"Engroshandel med fisk, skalldyr og bløtdyr","employees":21,"parentOrgNr":"953264560","parentName":"FJORDFISK AS","parentOrgForm":"AS","address":"Utgårdskilen 4-6","postnummer":"1684","poststed":"VESTERØY","kommunenummer":"3110","precision":"address"}},
{"type":"Feature","geometry":{"type":"Point","coordinates":[10.07789,59.06056]},"properties":{"orgNr":"975886794","name":"BAXT AS","group":"wholesale","naceCode":"46.360","naceDescription":"Engroshandel med sukker, sjokolade og sukkervarer","employees":57,"parentOrgNr":"875877712","parentName":"BAXT AS","parentOrgForm":"AS","address":"Hegdalringen 27","postnummer":"3261","poststed":"LARVIK","kommunenummer":"3909","precision":"address"}},
{"type":"Feature","geometry":{"type":"Point","coordinates":[5.71989,58.8164]},"properties":{"orgNr":"976083202","name":"L.K. HAALAND AS","group":"wholesale","naceCode":"46.390","naceDescription":"Engroshandel med bredt utvalg av nærings- og nytelsesmidler","employees":22,"parentOrgNr":"976073835","parentName":"L.K. HAALAND AS","parentOrgForm":"AS","address":"Kvålkroken 28","postnummer":"4323","poststed":"SANDNES","kommunenummer":"1108","precision":"address"}},
{"type":"Feature","geometry":{"type":"Point","coordinates":[5.32377,59.48973]},"properties":{"orgNr":"976689313","name":"HAUGALAND STORHUSHOLDNING AS","group":"wholesale","naceCode":"46.390","naceDescription":"Engroshandel med bredt utvalg av nærings- og nytelsesmidler","employees":31,"parentOrgNr":"992322470","parentName":"HAUGALAND STORHUSHOLDNING AS","parentOrgForm":"AS","address":"Ekrene Næringspark 33","postnummer":"5550","poststed":"SVEIO","kommunenummer":"4612","precision":"address"}},
{"type":"Feature","geometry":{"type":"Point","coordinates":[10.68317,59.9217]},"properties":{"orgNr":"976689674","name":"UNIL AS AVD OSLO","group":"wholesale","naceCode":"46.390","naceDescription":"Engroshandel med bredt utvalg av nærings- og nytelsesmidler","employees":131,"parentOrgNr":"885316522","parentName":"UNIL AS","parentOrgForm":"AS","address":"Drammensveien 144","postnummer":"0277","poststed":"OSLO","kommunenummer":"0301","precision":"address"}},
{"type":"Feature","geometry":{"type":"Point","coordinates":[5.34279,60.36589]},"properties":{"orgNr":"977208378","name":"STORCASH NORGE AS BERGEN STORCASH","group":"wholesale","naceCode":"46.390","naceDescription":"Engroshandel med bredt utvalg av nærings- og nytelsesmidler","employees":23,"parentOrgNr":"930258008","parentName":"STORCASH NORGE AS","parentOrgForm":"AS","address":"Minde allé 35","postnummer":"5068","poststed":"BERGEN","kommunenummer":"4601","precision":"address"}},
{"type":"Feature","geometry":{"type":"Point","coordinates":[10.74091,59.91374]},"properties":{"orgNr":"977410282","name":"PALMER GROUP AS","group":"wholesale","naceCode":"46.340","naceDescription":"Engroshandel med drikkevarer","employees":32,"parentOrgNr":"977320011","parentName":"PALMER GROUP AS","parentOrgForm":"AS","address":"Lille Grensen 7","postnummer":"0159","poststed":"OSLO","kommunenummer":"0301","precision":"address"}},
{"type":"Feature","geometry":{"type":"Point","coordinates":[5.30111,60.48173]},"properties":{"orgNr":"979648634","name":"BARE FRUKT & GRØNT AS AVD 260 BARE BERGEN","group":"wholesale","naceCode":"46.310","naceDescription":"Engroshandel med frukt og grønnsaker","employees":34,"parentOrgNr":"995518023","parentName":"BARE FRUKT & GRØNT AS","parentOrgForm":"AS","address":"Salhusvegen 54","postnummer":"5131","poststed":"NYBORG","kommunenummer":"4601","precision":"address"}},
{"type":"Feature","geometry":{"type":"Point","coordinates":[10.86841,59.93985]},"properties":{"orgNr":"979664672","name":"BARE FRUKT & GRØNT AS AVD NYLAND SYD","group":"wholesale","naceCode":"46.310","naceDescription":"Engroshandel med frukt og grønnsaker","employees":68,"parentOrgNr":"995518023","parentName":"BARE FRUKT & GRØNT AS","parentOrgForm":"AS","address":"Nedre Kalbakkvei 40","postnummer":"1081","poststed":"OSLO","kommunenummer":"0301","precision":"address"}},
{"type":"Feature","geometry":{"type":"Point","coordinates":[17.49655,68.54198]},"properties":{"orgNr":"979669577","name":"REMA DISTRIBUSJON NORGE AS DISTRIBUNAL NARVIK","group":"wholesale","naceCode":"46.390","naceDescription":"Engroshandel med bredt utvalg av nærings- og nytelsesmidler","employees":60,"parentOrgNr":"894759372","parentName":"REMA DISTRIBUSJON NORGE AS","parentOrgForm":"AS","address":"Herjangen 3","postnummer":"8530","poststed":"BJERKVIK","kommunenummer":"1806","precision":"address"}},
{"type":"Feature","geometry":{"type":"Point","coordinates":[18.97309,69.63318]},"properties":{"orgNr":"979771754","name":"TROMS FRYSETERMINAL AS","group":"warehousing","naceCode":"52.100","naceDescription":"Lagring","employees":38,"parentOrgNr":"979223358","parentName":"TROMS FRYSETERMINAL AS","parentOrgForm":"AS","address":"Kaldslett","postnummer":"9020","poststed":"TROMSDALEN","kommunenummer":"5501","precision":"postnummer"}},
{"type":"Feature","geometry":{"type":"Point","coordinates":[10.68911,59.92154]},"properties":{"orgNr":"980373568","name":"DANONE AS","group":"wholesale","naceCode":"46.380","naceDescription":"Engroshandel med andre næringsmidler","employees":26,"parentOrgNr":"880346792","parentName":"DANONE AS","parentOrgForm":"AS","address":"Drammensveien 123","postnummer":"0277","poststed":"OSLO","kommunenummer":"0301","precision":"address"}},
{"type":"Feature","geometry":{"type":"Point","coordinates":[10.41316,63.43605]},"properties":{"orgNr":"980457850","name":"NÆR ENGROS TRONDHEIM AS","group":"wholesale","naceCode":"46.390","naceDescription":"Engroshandel med bredt utvalg av nærings- og nytelsesmidler","employees":45,"parentOrgNr":"980451186","parentName":"NÆR ENGROS TRONDHEIM AS","parentOrgForm":"AS","address":"Reina","postnummer":"7042","poststed":"TRONDHEIM","kommunenummer":"5001","precision":"postnummer"}},
{"type":"Feature","geometry":{"type":"Point","coordinates":[8.3037,58.23945]},"properties":{"orgNr":"980659267","name":"AGDER GROSSISTEN AS","group":"wholesale","naceCode":"46.380","naceDescription":"Engroshandel med andre næringsmidler","employees":31,"parentOrgNr":"980634728","parentName":"AGDER GROSSISTEN AS","parentOrgForm":"AS","address":"Skytterheia 5","postnummer":"4790","poststed":"LILLESAND","kommunenummer":"4215","precision":"address"}},
{"type":"Feature","geometry":{"type":"Point","coordinates":[10.86446,59.49387]},"properties":{"orgNr":"981167074","name":"UNIL AS AVD LAGER","group":"wholesale","naceCode":"46.390","naceDescription":"Engroshandel med bredt utvalg av nærings- og nytelsesmidler","employees":43,"parentOrgNr":"885316522","parentName":"UNIL AS","parentOrgForm":"AS","address":"Våler Næringspark","postnummer":"1592","poststed":"VÅLER I ØSTFOLD","kommunenummer":"3114","precision":"postnummer"}},
{"type":"Feature","geometry":{"type":"Point","coordinates":[4.92122,60.70697]},"properties":{"orgNr":"981569857","name":"NORDHORDLAND FISK AS AVD BØVÅGEN","group":"wholesale","naceCode":"46.322","naceDescription":"Engroshandel med fisk, skalldyr og bløtdyr","employees":21,"parentOrgNr":"988409065","parentName":"NORDHORDLAND FISK AS","parentOrgForm":"AS","address":"Bøvågen","postnummer":"5937","poststed":"BØVÅGEN","kommunenummer":"4631","precision":"postnummer"}},
{"type":"Feature","geometry":{"type":"Point","coordinates":[10.68188,59.92253]},"properties":{"orgNr":"981888626","name":"ROYAL CANIN NORGE AS","group":"wholesale","naceCode":"46.380","naceDescription":"Engroshandel med andre næringsmidler","employees":22,"parentOrgNr":"987661631","parentName":"ROYAL CANIN NORGE AS","parentOrgForm":"AS","address":"Drammensveien 151","postnummer":"0277","poststed":"OSLO","kommunenummer":"0301","precision":"address"}},
{"type":"Feature","geometry":{"type":"Point","coordinates":[5.23493,60.28213]},"properties":{"orgNr":"981982169","name":"MÅKESTAD ENGROS AS","group":"wholesale","naceCode":"46.390","naceDescription":"Engroshandel med bredt utvalg av nærings- og nytelsesmidler","employees":57,"parentOrgNr":"981521935","parentName":"MÅKESTAD ENGROS AS","parentOrgForm":"AS","address":"Lønningshaugen 2","postnummer":"5258","poststed":"BLOMSTERDALEN","kommunenummer":"4601","precision":"address"}},
{"type":"Feature","geometry":{"type":"Point","coordinates":[5.34399,60.46451]},"properties":{"orgNr":"982239761","name":"EUROSUPPLY AS AVD NYBORG","group":"wholesale","naceCode":"46.390","naceDescription":"Engroshandel med bredt utvalg av nærings- og nytelsesmidler","employees":62,"parentOrgNr":"882231372","parentName":"EUROSUPPLY AS","parentOrgForm":"AS","address":"Litleåsvegen 77","postnummer":"5132","poststed":"NYBORG","kommunenummer":"4601","precision":"address"}},
{"type":"Feature","geometry":{"type":"Point","coordinates":[10.80686,59.93229]},"properties":{"orgNr":"982536030","name":"VATAN ENGROS AS","group":"wholesale","naceCode":"46.310","naceDescription":"Engroshandel med frukt og grønnsaker","employees":25,"parentOrgNr":"982524067","parentName":"VATAN ENGROS AS","parentOrgForm":"AS","address":"Økern torgvei 3","postnummer":"0580","poststed":"OSLO","kommunenummer":"0301","precision":"address"}},
{"type":"Feature","geometry":{"type":"Point","coordinates":[5.66889,58.8778]},"properties":{"orgNr":"982687004","name":"LERØY NORGE AS AVD STAVANGER","group":"wholesale","naceCode":"46.322","naceDescription":"Engroshandel med fisk, skalldyr og bløtdyr","employees":21,"parentOrgNr":"919095105","parentName":"LERØY NORGE AS","parentOrgForm":"AS","address":"Varabergmyra 2","postnummer":"4051","poststed":"SOLA","kommunenummer":"1124","precision":"address"}},
{"type":"Feature","geometry":{"type":"Point","coordinates":[10.59912,59.94732]},"properties":{"orgNr":"983105947","name":"BLACK CAT KAFFE OG TEHUS AS AVD GRINI NÆRINGSPARK","group":"wholesale","naceCode":"46.370","naceDescription":"Engroshandel med kaffe, te, kakao og krydder","employees":21,"parentOrgNr":"912123553","parentName":"BLACK CAT KAFFE OG TEHUS AS","parentOrgForm":"AS","address":"Grini Næringspark 8","postnummer":"1361","poststed":"ØSTERÅS","kommunenummer":"3201","precision":"address"}},
{"type":"Feature","geometry":{"type":"Point","coordinates":[5.68833,58.88149]},"properties":{"orgNr":"983197434","name":"STORCASH NORGE AS STAVANGER STORCASH","group":"wholesale","naceCode":"46.390","naceDescription":"Engroshandel med bredt utvalg av nærings- og nytelsesmidler","employees":21,"parentOrgNr":"930258008","parentName":"STORCASH NORGE AS","parentOrgForm":"AS","address":"Forusbeen 248","postnummer":"4312","poststed":"SANDNES","kommunenummer":"1108","precision":"address"}},
{"type":"Feature","geometry":{"type":"Point","coordinates":[10.44923,63.44407]},"properties":{"orgNr":"983824129","name":"REITAN AS AVD TRONDHEIM","group":"wholesale","naceCode":"46.390","naceDescription":"Engroshandel med bredt utvalg av nærings- og nytelsesmidler","employees":21,"parentOrgNr":"912609987","parentName":"REITAN AS","parentOrgForm":"AS","address":"Lade Gaard","postnummer":"7041","poststed":"TRONDHEIM","kommunenummer":"5001","precision":"postnummer"}},
{"type":"Feature","geometry":{"type":"Point","coordinates":[5.74613,58.94785]},"properties":{"orgNr":"984026668","name":"MATCOMPANIET AS","group":"wholesale","naceCode":"46.390","naceDescription":"Engroshandel med bredt utvalg av nærings- og nytelsesmidler","employees":40,"parentOrgNr":"984012187","parentName":"MATCOMPANIET AS","parentOrgForm":"AS","address":"Kvalebergveien 21","postnummer":"4016","poststed":"STAVANGER","kommunenummer":"1103","precision":"address"}},
{"type":"Feature","geometry":{"type":"Point","coordinates":[10.84781,59.94399]},"properties":{"orgNr":"984479883","name":"ABIRAMY CASH & CARRY AS","group":"wholesale","naceCode":"46.390","naceDescription":"Engroshandel med bredt utvalg av nærings- og nytelsesmidler","employees":26,"parentOrgNr":"999338100","parentName":"ABIRAMY CASH & CARRY AS","parentOrgForm":"AS","address":"Veitvet senter, Veitvetveien 8","postnummer":"0596","poststed":"OSLO","kommunenummer":"0301","precision":"address"}},
{"type":"Feature","geometry":{"type":"Point","coordinates":[10.8711,60.65806]},"properties":{"orgNr":"984527918","name":"TOTEN EGGPAKKERI AS","group":"wholesale","naceCode":"46.330","naceDescription":"Engroshandel med meierivarer, egg, matolje og -fett","employees":27,"parentOrgNr":"984500564","parentName":"TOTEN EGGPAKKERI AS","parentOrgForm":"AS","address":"Kraby Næringspark, Krabyskogvegen 284","postnummer":"2850","poststed":"LENA","kommunenummer":"3442","precision":"address"}},
{"type":"Feature","geometry":{"type":"Point","coordinates":[11.12043,60.04038]},"properties":{"orgNr":"984964277","name":"ALIMENTA AS AVD ENGROSHANDEL","group":"wholesale","naceCode":"46.380","naceDescription":"Engroshandel med andre næringsmidler","employees":46,"parentOrgNr":"984952910","parentName":"ALIMENTA AS","parentOrgForm":"AS","address":"Jeksleveien 2","postnummer":"2016","poststed":"FROGNER","kommunenummer":"3205","precision":"address"}},
{"type":"Feature","geometry":{"type":"Point","coordinates":[10.83262,59.92826]},"properties":{"orgNr":"985178348","name":"SUNRISE FOOD AS","group":"wholesale","naceCode":"46.380","naceDescription":"Engroshandel med andre næringsmidler","employees":28,"parentOrgNr":"985129517","parentName":"SUNRISE FOOD AS","parentOrgForm":"AS","address":"Brobekkveien 100E","postnummer":"0582","poststed":"OSLO","kommunenummer":"0301","precision":"address"}},
{"type":"Feature","geometry":{"type":"Point","coordinates":[10.64485,59.91363]},"properties":{"orgNr":"985229813","name":"ARVID NORDQUIST NORGE AS","group":"wholesale","naceCode":"46.390","naceDescription":"Engroshandel med bredt utvalg av nærings- og nytelsesmidler","employees":27,"parentOrgNr":"985147493","parentName":"ARVID NORDQUIST NORGE AS","parentOrgForm":"AS","address":"Drammensveien 288","postnummer":"0283","poststed":"OSLO","kommunenummer":"0301","precision":"address"}},
{"type":"Feature","geometry":{"type":"Point","coordinates":[6.60851,60.42593]},"properties":{"orgNr":"985615357","name":"HARDANGER FJORDFRUKT SA","group":"wholesale","naceCode":"46.310","naceDescription":"Engroshandel med frukt og grønnsaker","employees":34,"parentOrgNr":"985323461","parentName":"HARDANGER FJORDFRUKT SA","parentOrgForm":"SA","address":"Fjordavegen 4262","postnummer":"5778","poststed":"UTNE","kommunenummer":"4618","precision":"address"}},
{"type":"Feature","geometry":{"type":"Point","coordinates":[10.7441,59.58919]},"properties":{"orgNr":"985621780","name":"ASKO ØST AS","group":"wholesale","naceCode":"46.390","naceDescription":"Engroshandel med bredt utvalg av nærings- og nytelsesmidler","employees":299,"parentOrgNr":"912015238","parentName":"ASKO ØST AS","parentOrgForm":"AS","address":"Delitoppen 4","postnummer":"1540","poststed":"VESTBY","kommunenummer":"3216","precision":"address"}},
{"type":"Feature","geometry":{"type":"Point","coordinates":[6.22507,62.47743]},"properties":{"orgNr":"985947848","name":"OCEAN SUPREME AS","group":"wholesale","naceCode":"46.322","naceDescription":"Engroshandel med fisk, skalldyr og bløtdyr","employees":24,"parentOrgNr":"985928304","parentName":"OCEAN SUPREME AS","parentOrgForm":"AS","address":"Gangstøvikvegen 76","postnummer":"6009","poststed":"ÅLESUND","kommunenummer":"1508","precision":"address"}},
{"type":"Feature","geometry":{"type":"Point","coordinates":[11.26921,59.36236]},"properties":{"orgNr":"986191062","name":"CONSTELLATION CLN RAKKESTAD","group":"warehousing","naceCode":"52.100","naceDescription":"Lagring","employees":27,"parentOrgNr":"986182837","parentName":"CONSTELLATION COLD LOGISTICS NORWAY AS","parentOrgForm":"AS","address":"Motorsportveien 64","postnummer":"1894","poststed":"RAKKESTAD","kommunenummer":"3120","precision":"address"}},
{"type":"Feature","geometry":{"type":"Point","coordinates":[10.85159,59.92849]},"properties":{"orgNr":"986192662","name":"WULFF & CO AS AVD OSLO","group":"wholesale","naceCode":"46.380","naceDescription":"Engroshandel med andre næringsmidler","employees":42,"parentOrgNr":"886181132","parentName":"WULFF & CO AS","parentOrgForm":"AS","address":"Verkseier Furulunds vei 16B","postnummer":"0668","poststed":"OSLO","kommunenummer":"0301","precision":"address"}},
{"type":"Feature","geometry":{"type":"Point","coordinates":[10.72731,59.91064]},"properties":{"orgNr":"986255583","name":"AS NESTLÉ NORGE DIVISJON NESPRESSO","group":"wholesale","naceCode":"46.370","naceDescription":"Engroshandel med kaffe, te, kakao og krydder","employees":48,"parentOrgNr":"814576612","parentName":"AS NESTLÉ NORGE","parentOrgForm":"AS","address":"Grundingen 6","postnummer":"0250","poststed":"OSLO","kommunenummer":"0301","precision":"address"}},
{"type":"Feature","geometry":{"type":"Point","coordinates":[10.68204,59.92214]},"properties":{"orgNr":"986530053","name":"ORKLA HEALTH AS AVD DRAMMENSVEIEN 149A","group":"wholesale","naceCode":"46.380","naceDescription":"Engroshandel med andre næringsmidler","employees":125,"parentOrgNr":"986519904","parentName":"ORKLA HEALTH AS","parentOrgForm":"AS","address":"Drammensveien 149A","postnummer":"0277","poststed":"OSLO","kommunenummer":"0301","precision":"address"}},
{"type":"Feature","geometry":{"type":"Point","coordinates":[10.79294,59.9177]},"properties":{"orgNr":"987041617","name":"VILLA IMPORT AS","group":"wholesale","naceCode":"46.390","naceDescription":"Engroshandel med bredt utvalg av nærings- og nytelsesmidler","employees":36,"parentOrgNr":"918429255","parentName":"VILLA IMPORT AS","parentOrgForm":"AS","address":"Gladengveien 17","postnummer":"0661","poststed":"OSLO","kommunenummer":"0301","precision":"address"}},
{"type":"Feature","geometry":{"type":"Point","coordinates":[10.44808,63.44412]},"properties":{"orgNr":"987526688","name":"COOP NORGE SA AVD REGNSKAP TRONDHEIM","group":"wholesale","naceCode":"46.390","naceDescription":"Engroshandel med bredt utvalg av nærings- og nytelsesmidler","employees":61,"parentOrgNr":"936560288","parentName":"COOP NORGE SA","parentOrgForm":"SA","address":"Haakon VII's gate 9","postnummer":"7041","poststed":"TRONDHEIM","kommunenummer":"5001","precision":"address"}},
{"type":"Feature","geometry":{"type":"Point","coordinates":[10.81571,59.92395]},"properties":{"orgNr":"987624256","name":"EGIL JENSEN AS","group":"wholesale","naceCode":"46.310","naceDescription":"Engroshandel med frukt og grønnsaker","employees":83,"parentOrgNr":"987615192","parentName":"EGIL JENSEN AS","parentOrgForm":"AS","address":"Ulvenveien 102","postnummer":"0581","poststed":"OSLO","kommunenummer":"0301","precision":"address"}},
{"type":"Feature","geometry":{"type":"Point","coordinates":[11.08179,60.22901]},"properties":{"orgNr":"987987537","name":"ASIAN FOOD IMPORT AS","group":"wholesale","naceCode":"46.390","naceDescription":"Engroshandel med bredt utvalg av nærings- og nytelsesmidler","employees":44,"parentOrgNr":"987921994","parentName":"ASIAN FOOD IMPORT AS","parentOrgForm":"AS","address":"Majorvegen 8","postnummer":"2030","poststed":"NANNESTAD","kommunenummer":"3238","precision":"address"}},
{"type":"Feature","geometry":{"type":"Point","coordinates":[10.18097,59.74446]},"properties":{"orgNr":"988078905","name":"CONDIFA AS","group":"wholesale","naceCode":"46.390","naceDescription":"Engroshandel med bredt utvalg av nærings- og nytelsesmidler","employees":35,"parentOrgNr":"920260942","parentName":"CONDIFA AS","parentOrgForm":"AS","address":"Nedre Eikervei 8","postnummer":"3045","poststed":"DRAMMEN","kommunenummer":"3301","precision":"address"}},
{"type":"Feature","geometry":{"type":"Point","coordinates":[5.32543,59.39314]},"properties":{"orgNr":"988152552","name":"AMUNDSEN-TRADING AS","group":"wholesale","naceCode":"46.370","naceDescription":"Engroshandel med kaffe, te, kakao og krydder","employees":43,"parentOrgNr":"926836838","parentName":"AMUNDSEN-TRADING AS","parentOrgForm":"AS","address":"Raglamyrvegen 20","postnummer":"5536","poststed":"HAUGESUND","kommunenummer":"1106","precision":"address"}},
{"type":"Feature","geometry":{"type":"Point","coordinates":[10.66525,59.66878]},"properties":{"orgNr":"990387737","name":"FOODBROKER AS","group":"wholesale","naceCode":"46.390","naceDescription":"Engroshandel med bredt utvalg av nærings- og nytelsesmidler","employees":20,"parentOrgNr":"990335591","parentName":"FOODBROKER AS","parentOrgForm":"AS","address":"Holterkollveien 3","postnummer":"1448","poststed":"DRØBAK","kommunenummer":"3214","precision":"address"}},
{"type":"Feature","geometry":{"type":"Point","coordinates":[7.27839,62.7689]},"properties":{"orgNr":"990505586","name":"BARE FRUKT & GRØNT AS AVD 250 BARE MOLDE","group":"wholesale","naceCode":"46.390","naceDescription":"Engroshandel med bredt utvalg av nærings- og nytelsesmidler","employees":35,"parentOrgNr":"995518023","parentName":"BARE FRUKT & GRØNT AS","parentOrgForm":"AS","address":"Gammelseterlia 12","postnummer":"6422","poststed":"MOLDE","kommunenummer":"1506","precision":"address"}},
{"type":"Feature","geometry":{"type":"Point","coordinates":[10.80686,59.93229]},"properties":{"orgNr":"990905673","name":"ASIA ENGROS AS","group":"wholesale","naceCode":"46.380","naceDescription":"Engroshandel med andre næringsmidler","employees":26,"parentOrgNr":"890874592","parentName":"ASIA ENGROS AS","parentOrgForm":"AS","address":"Økern torgvei 3","postnummer":"0580","poststed":"OSLO","kommunenummer":"0301","precision":"address"}},
{"type":"Feature","geometry":{"type":"Point","coordinates":[10.82078,60.90366]},"properties":{"orgNr":"992536306","name":"BARE FRUKT & GRØNT AS AVD 210 BARE HAMAR","group":"wholesale","naceCode":"46.310","naceDescription":"Engroshandel med frukt og grønnsaker","employees":38,"parentOrgNr":"995518023","parentName":"BARE FRUKT & GRØNT AS","parentOrgForm":"AS","address":"Leinskogen 12","postnummer":"2360","poststed":"RUDSHØGDA","kommunenummer":"3411","precision":"address"}},
{"type":"Feature","geometry":{"type":"Point","coordinates":[9.04035,58.74436]},"properties":{"orgNr":"992948663","name":"LUNDE GÅRD ENGROS AS","group":"wholesale","naceCode":"46.310","naceDescription":"Engroshandel med frukt og grønnsaker","employees":32,"parentOrgNr":"992938706","parentName":"LUNDE GÅRD ENGROS AS","parentOrgForm":"AS","address":"Porsveien 50-52","postnummer":"4994","poststed":"AKLAND","kommunenummer":"4201","precision":"address"}},
{"type":"Feature","geometry":{"type":"Point","coordinates":[10.68197,59.92021]},"properties":{"orgNr":"993936715","name":"NUTRAQ AS AVD OSLO","group":"wholesale","naceCode":"46.380","naceDescription":"Engroshandel med andre næringsmidler","employees":57,"parentOrgNr":"893905952","parentName":"NUTRAQ AS","parentOrgForm":"AS","address":"Sjølyst plass 3","postnummer":"0278","poststed":"OSLO","kommunenummer":"0301","precision":"address"}},
{"type":"Feature","geometry":{"type":"Point","coordinates":[10.73967,59.9178]},"properties":{"orgNr":"994145576","name":"RED BULL NORWAY AS","group":"wholesale","naceCode":"46.340","naceDescription":"Engroshandel med drikkevarer","employees":154,"parentOrgNr":"994073621","parentName":"RED BULL NORWAY AS","parentOrgForm":"AS","address":"St. Olavs plass 5","postnummer":"0165","poststed":"OSLO","kommunenummer":"0301","precision":"address"}},
{"type":"Feature","geometry":{"type":"Point","coordinates":[5.33097,60.38903]},"properties":{"orgNr":"994394193","name":"GLOBAL FOOD GF AS","group":"wholesale","naceCode":"46.380","naceDescription":"Engroshandel med andre næringsmidler","employees":31,"parentOrgNr":"994386182","parentName":"GLOBAL FOOD GF AS","parentOrgForm":"AS","address":"Vestre Strømkaien 1","postnummer":"5008","poststed":"BERGEN","kommunenummer":"4601","precision":"address"}},
{"type":"Feature","geometry":{"type":"Point","coordinates":[10.7351,59.57877]},"properties":{"orgNr":"994734369","name":"BARE FRUKT & GRØNT AS AVD 220 BARE VESTBY","group":"wholesale","naceCode":"46.310","naceDescription":"Engroshandel med frukt og grønnsaker","employees":35,"parentOrgNr":"995518023","parentName":"BARE FRUKT & GRØNT AS","parentOrgForm":"AS","address":"Deliveien 4","postnummer":"1540","poststed":"VESTBY","kommunenummer":"3216","precision":"address"}},
{"type":"Feature","geometry":{"type":"Point","coordinates":[5.31238,60.39794]},"properties":{"orgNr":"994736760","name":"SJOR AS AVD. BERGEN","group":"wholesale","naceCode":"46.322","naceDescription":"Engroshandel med fisk, skalldyr og bløtdyr","employees":28,"parentOrgNr":"894729252","parentName":"SJOR AS","parentOrgForm":"AS","address":"C. Sundts gate 53","postnummer":"5004","poststed":"BERGEN","kommunenummer":"4601","precision":"address"}},
{"type":"Feature","geometry":{"type":"Point","coordinates":[10.76525,59.92572]},"properties":{"orgNr":"994775065","name":"MONDELEZ NORGE AS","group":"wholesale","naceCode":"46.390","naceDescription":"Engroshandel med bredt utvalg av nærings- og nytelsesmidler","employees":75,"parentOrgNr":"957720323","parentName":"MONDELEZ NORGE AS","parentOrgForm":"AS","address":"Johan Throne Holsts plass 1","postnummer":"0566","poststed":"OSLO","kommunenummer":"0301","precision":"address"}},
{"type":"Feature","geometry":{"type":"Point","coordinates":[10.72241,59.91499]},"properties":{"orgNr":"995859211","name":"MAGMA WINES AS","group":"wholesale","naceCode":"46.340","naceDescription":"Engroshandel med drikkevarer","employees":29,"parentOrgNr":"998894360","parentName":"MAGMA WINES AS","parentOrgForm":"AS","address":"Parkveien 60","postnummer":"0254","poststed":"OSLO","kommunenummer":"0301","precision":"address"}},
{"type":"Feature","geometry":{"type":"Point","coordinates":[5.37841,60.32807]},"properties":{"orgNr":"996107353","name":"GOODLIFE NORGE AS AVD ENGROS","group":"wholesale","naceCode":"46.380","naceDescription":"Engroshandel med andre næringsmidler","employees":26,"parentOrgNr":"922266662","parentName":"GOODLIFE NORGE AS","parentOrgForm":"AS","address":"Hardangervegen 74","postnummer":"5224","poststed":"NESTTUN","kommunenummer":"4601","precision":"address"}},
{"type":"Feature","geometry":{"type":"Point","coordinates":[10.90788,59.98985]},"properties":{"orgNr":"996339025","name":"DOMSTEIN SJØMAT AS AVD OSLO","group":"wholesale","naceCode":"46.322","naceDescription":"Engroshandel med fisk, skalldyr og bløtdyr","employees":47,"parentOrgNr":"997420470","parentName":"DOMSTEIN SJØMAT AS","parentOrgForm":"AS","address":"Brennaveien 20B","postnummer":"1481","poststed":"HAGAN","kommunenummer":"3232","precision":"address"}},
{"type":"Feature","geometry":{"type":"Point","coordinates":[5.93029,58.74313]},"properties":{"orgNr":"996376079","name":"BAMA STORKJØKKEN AS AVD 145 STAVANGER STORKJØKKEN","group":"wholesale","naceCode":"46.310","naceDescription":"Engroshandel med frukt og grønnsaker","employees":34,"parentOrgNr":"995518333","parentName":"BAMA STORKJØKKEN AS","parentOrgForm":"AS","address":"Skurvemarka 21","postnummer":"4331","poststed":"ÅLGÅRD","kommunenummer":"1122","precision":"address"}},
{"type":"Feature","geometry":{"type":"Point","coordinates":[7.87344,58.13773]},"properties":{"orgNr":"996888061","name":"SPESIALGROSSISTEN SØR AS AVD KRISTIANSAND S","group":"wholesale","naceCode":"46.390","naceDescription":"Engroshandel med bredt utvalg av nærings- og nytelsesmidler","employees":26,"parentOrgNr":"996878104","parentName":"SPESIALGROSSISTEN SØR AS","parentOrgForm":"AS","address":"Mjåvannsvegen 158","postnummer":"4628","poststed":"KRISTIANSAND S","kommunenummer":"4204","precision":"address"}},
{"type":"Feature","geometry":{"type":"Point","coordinates":[10.72143,59.92646]},"properties":{"orgNr":"997028538","name":"DET NORSKE BRENNERI AS","group":"wholesale","naceCode":"46.340","naceDescription":"Engroshandel med drikkevarer","employees":27,"parentOrgNr":"996928977","parentName":"DET NORSKE BRENNERI AS","parentOrgForm":"AS","address":"Bogstadveien 27B","postnummer":"0355","poststed":"OSLO","kommunenummer":"0301","precision":"address"}},
{"type":"Feature","geometry":{"type":"Point","coordinates":[10.86841,59.93985]},"properties":{"orgNr":"997197984","name":"BAMA STORKJØKKEN AS AVD NYLAND SYD","group":"wholesale","naceCode":"46.310","naceDescription":"Engroshandel med frukt og grønnsaker","employees":139,"parentOrgNr":"995518333","parentName":"BAMA STORKJØKKEN AS","parentOrgForm":"AS","address":"Nedre Kalbakkvei 40","postnummer":"1081","poststed":"OSLO","kommunenummer":"0301","precision":"address"}},
{"type":"Feature","geometry":{"type":"Point","coordinates":[10.81918,59.92418]},"properties":{"orgNr":"997561988","name":"EXOTIC FRUIT AS","group":"wholesale","naceCode":"46.310","naceDescription":"Engroshandel med frukt og grønnsaker","employees":48,"parentOrgNr":"997544110","parentName":"EXOTIC FRUIT AS","parentOrgForm":"AS","address":"Persveien 22-24","postnummer":"0581","poststed":"OSLO","kommunenummer":"0301","precision":"address"}},
{"type":"Feature","geometry":{"type":"Point","coordinates":[10.84187,59.76804]},"properties":{"orgNr":"997890132","name":"FRESH CUT AS","group":"wholesale","naceCode":"46.310","naceDescription":"Engroshandel med frukt og grønnsaker","employees":35,"parentOrgNr":"897865262","parentName":"FRESH CUT AS","parentOrgForm":"AS","address":"Regnbueveien 10","postnummer":"1405","poststed":"LANGHUS","kommunenummer":"3207","precision":"address"}},
{"type":"Feature","geometry":{"type":"Point","coordinates":[10.75439,59.57687]},"properties":{"orgNr":"997949080","name":"VINHUSET AS AVD OSLO","group":"wholesale","naceCode":"46.340","naceDescription":"Engroshandel med drikkevarer","employees":49,"parentOrgNr":"994380893","parentName":"VINHUSET AS","parentOrgForm":"AS","address":"Stormåsan 42","postnummer":"1540","poststed":"VESTBY","kommunenummer":"3216","precision":"address"}},
{"type":"Feature","geometry":{"type":"Point","coordinates":[6.63982,62.69237]},"properties":{"orgNr":"998996899","name":"SILVER SEAFOOD","group":"wholesale","naceCode":"46.322","naceDescription":"Engroshandel med fisk, skalldyr og bløtdyr","employees":29,"parentOrgNr":"998989248","parentName":"SILVER SEAFOOD AS","parentOrgForm":"AS","address":"Sjøvikvegen 55","postnummer":"6475","poststed":"MIDSUND","kommunenummer":"1506","precision":"address"}},
{"type":"Feature","geometry":{"type":"Point","coordinates":[5.13236,59.80029]},"properties":{"orgNr":"999360181","name":"BREMNES SEASHORE AS","group":"wholesale","naceCode":"46.322","naceDescription":"Engroshandel med fisk, skalldyr og bløtdyr","employees":41,"parentOrgNr":"933852873","parentName":"BREMNES SEASHORE AS","parentOrgForm":"AS","address":"Øklandsvegen 90","postnummer":"5430","poststed":"BREMNES","kommunenummer":"4613","precision":"address"}}
]}
